{"type":"FeatureCollection","features":[{"type":"Feature","id":1,"geometry":{"type":"Polygon","coordinates":[[[-34.895523991608712,-8.0045908181957373],[-34.895323630644278,-8.0045326183177536],[-34.894912299970407,-8.004424473251337],[-34.894519392228737,-8.0043564302548322],[-34.894517167138957,-8.0042904202662672],[-34.894403957062785,-8.0038871630494981],[-34.894331109776481,-8.0037018751187592],[-34.894243634799061,-8.0034669002373686],[-34.894042358958643,-8.0035319303675134],[-34.893932356306074,-8.0031994627381238],[-34.893927676337356,-8.0031558733448644],[-34.894363141838731,-8.0031383263595259],[-34.894499646233179,-8.0030778986827631],[-34.894579803040742,-8.0030272983977007],[-34.894739263920933,-8.0030014492685577],[-34.895146000450332,-8.002998386515312],[-34.89547907664064,-8.0028939982996867],[-34.896128759452559,-8.0024445197042979],[-34.896402406614527,-8.0022546704027828],[-34.896761159447273,-8.0019946822519383],[-34.896875883177323,-8.0018948848126037],[-34.897284855829177,-8.0015975885157697],[-34.897436934708139,-8.0015323050277054],[-34.897609570396455,-8.00150161093603],[-34.897895100489983,-8.001494317738219],[-34.897953515669855,-8.0015078435252285],[-34.898055939973432,-8.0015504291358379],[-34.898181009585421,-8.0016580934824528],[-34.898351858678232,-8.0017526560268646],[-34.898335426238646,-8.0017887183039313],[-34.897952247105131,-8.0024658679113205],[-34.897330540621617,-8.0035645380954339],[-34.897250242395415,-8.0037481660684175],[-34.897088504099671,-8.0040458794492508],[-34.897012275148398,-8.00417791753177],[-34.896786141446533,-8.0045431151009954],[-34.89671095636654,-8.0046093045417681],[-34.896657233039384,-8.0046525520424545],[-34.8965644055734,-8.0046932914641378],[-34.896474235357708,-8.004725955204103],[-34.896393422131467,-8.0047411082739295],[-34.896245174510113,-8.0047498521527078],[-34.896142673898474,-8.0047395728372539],[-34.896040142216762,-8.0047225754493798],[-34.895871426285979,-8.0046776632161087],[-34.895620404651034,-8.0046170039343458],[-34.895523991608712,-8.0045908181957373]]]},"properties":{"ID":0,"ZEC":"ZEC - BEBERIBE","OBJECTID":1,"DB2GSE.ST_Area(SHAPE)":85680.417234515,"DB2GSE.SdeLength(SHAPE)":1334.712800416132}},{"type":"Feature","id":2,"geometry":{"type":"Polygon","coordinates":[[[-34.889823014474814,-8.0377698917021601],[-34.890557470220045,-8.0373122644317334],[-34.890575451884196,-8.0372566867282167],[-34.890608474249774,-8.0371321482309437],[-34.8905863766701,-8.0370246077071883],[-34.890706137127204,-8.0369522576796673],[-34.890781001491106,-8.0367459861535728],[-34.890726903631005,-8.0367114189955515],[-34.890869623630813,-8.0364232947769327],[-34.890924051857759,-8.0361392201609831],[-34.890997747368587,-8.0359763470217853],[-34.890971107788438,-8.0357313959128511],[-34.891075046905186,-8.0352137656706262],[-34.89096939899796,-8.0349989619091637],[-34.891139556951927,-8.0346711373711077],[-34.891152433319768,-8.034677588399834],[-34.891394389132252,-8.0342700420133628],[-34.891606295677875,-8.0344245502726714],[-34.8916460091354,-8.0344494837124962],[-34.892074378010086,-8.0347058524585666],[-34.892567731985231,-8.0350025868312169],[-34.892916829896393,-8.0352425758749924],[-34.893107049671229,-8.0353780463861106],[-34.893439848167844,-8.0357257510047013],[-34.893686157555138,-8.0360535219192375],[-34.894190829970455,-8.0368495397015796],[-34.894290698060161,-8.0370374517181098],[-34.893986408802512,-8.037403640498173],[-34.894266456949254,-8.0382784333916639],[-34.894610253320678,-8.0393143951871586],[-34.893730618518696,-8.0396886177860338],[-34.892468182878638,-8.0399312465277131],[-34.892220009585401,-8.0407033408232618],[-34.891803370436101,-8.0405284918651176],[-34.890558054058928,-8.0395458320157385],[-34.890418119867526,-8.0391790578928735],[-34.890383770899298,-8.0390171555146779],[-34.889823014474814,-8.0377698917021601]]]},"properties":{"ID":0,"ZEC":"ZEC - ENCRUZILHADA","OBJECTID":2,"DB2GSE.ST_Area(SHAPE)":216231.17339326499,"DB2GSE.SdeLength(SHAPE)":1970.2770703029714}},{"type":"Feature","id":3,"geometry":{"type":"Polygon","coordinates":[[[-34.909422062572396,-8.0782391444121977],[-34.909443779910177,-8.0784468968943948],[-34.909532810622309,-8.0802390962089614],[-34.909674888825805,-8.080338896964598],[-34.909576878240244,-8.0804230748845356],[-34.909508869683698,-8.0805071135702153],[-34.909436506333499,-8.0805902748515113],[-34.909190533080185,-8.0812372668494543],[-34.908963511547867,-8.0819205888635537],[-34.908900626423993,-8.0821933663427128],[-34.908867005861389,-8.0823176146030526],[-34.908851009864399,-8.0823806340251014],[-34.908848615647486,-8.0823931186106162],[-34.908677369872592,-8.082411709410378],[-34.908212449012389,-8.0824621834995156],[-34.907682787128557,-8.0825387866344354],[-34.907612099642044,-8.0825490097457457],[-34.907363390419107,-8.0825851107890134],[-34.907345201010941,-8.0825877623149598],[-34.907273639980893,-8.0825981928629158],[-34.906640357236689,-8.0826905027313813],[-34.906561440703065,-8.0827014484379038],[-34.906418652799523,-8.0827212517557729],[-34.90637127440467,-8.0827278238104618],[-34.90634262453068,-8.0827317970102666],[-34.906326020442577,-8.0827339881619142],[-34.906273452008051,-8.0827360631693548],[-34.906221105963169,-8.0827308268410967],[-34.906170000602955,-8.0827183802036018],[-34.906121129493535,-8.0826989672419032],[-34.906075445999704,-8.0826729641230219],[-34.906033838788154,-8.0826408784059858],[-34.906009890649557,-8.0826176081730434],[-34.905989505847145,-8.0825955110752865],[-34.905973507652497,-8.0825781697118408],[-34.905914842887363,-8.0825059767943515],[-34.905899484465813,-8.0824836600696273],[-34.905862120076151,-8.082429366908201],[-34.90583050411152,-8.0823761978171653],[-34.905791297989964,-8.0823179868644655],[-34.905719580231079,-8.0822217966056229],[-34.905682241741388,-8.0821772618059669],[-34.905651143978723,-8.0821401709335063],[-34.905591616172977,-8.0820872042601533],[-34.905591200780023,-8.0820868346246577],[-34.905578887123681,-8.0820649792255193],[-34.905557917047062,-8.082027759762699],[-34.905366025119896,-8.081687170512506],[-34.905330975050077,-8.0816249594995924],[-34.905309671137921,-8.0815871475960517],[-34.905249167828295,-8.0814797604777606],[-34.90522505919941,-8.0814429479763241],[-34.905213086199829,-8.0814246647510259],[-34.905168005649564,-8.0813558275311372],[-34.905165806397768,-8.0813524692217662],[-34.905047003030475,-8.0811710592129575],[-34.905038541684888,-8.0811605282744612],[-34.905028605788758,-8.0811481626195647],[-34.904990681664167,-8.0811009616336928],[-34.904769364731791,-8.0808255097107402],[-34.904758749943213,-8.0808149996448986],[-34.904692331661352,-8.0807492379438948],[-34.90468670027731,-8.0807436625705371],[-34.904595405137869,-8.0806532696723217],[-34.904372074541868,-8.0804734953515176],[-34.904363265596707,-8.0804664041841008],[-34.904353404936458,-8.0804584671864372],[-34.904224943177347,-8.0803550587297046],[-34.904099122158399,-8.0802537760419355],[-34.903964646207974,-8.0801670140777873],[-34.904074162252243,-8.0799794494954753],[-34.904266540446713,-8.0796499688280878],[-34.904303284797983,-8.0795870372407226],[-34.904359270492101,-8.0795374568304048],[-34.90448489902289,-8.079402357129343],[-34.904574800353366,-8.0793134146978041],[-34.904621928916931,-8.0792667884304965],[-34.904660715607484,-8.0792209758028957],[-34.90470511901573,-8.0791685273647982],[-34.904737781045213,-8.0791299477855549],[-34.904751915796453,-8.0791132525060725],[-34.904943785808371,-8.0788866218365083],[-34.90504484083614,-8.0787672597287745],[-34.905215768278467,-8.0785618835720321],[-34.905330036736956,-8.0784245855331545],[-34.905352616016764,-8.0783974559213494],[-34.90539561054036,-8.0783457960304528],[-34.905455656548462,-8.0782736491546885],[-34.90557852681399,-8.0781260154739609],[-34.905584264434033,-8.078119244389919],[-34.905699936053445,-8.077982732631467],[-34.90594841881618,-8.0776894811317348],[-34.906000334223528,-8.0776282109803912],[-34.906024032519369,-8.0776002434891954],[-34.906170372006997,-8.0774161224581587],[-34.906313375571564,-8.0772361973618345],[-34.906372913916989,-8.0771612881487549],[-34.906411813391138,-8.0771104012868484],[-34.906479933639396,-8.0770212853226901],[-34.906473028149911,-8.0770010980325075],[-34.907226486892185,-8.0760674897871993],[-34.907361711054087,-8.0758570595918115],[-34.907361328575242,-8.0758592555468631],[-34.907362596199121,-8.0758662896096176],[-34.907373825449881,-8.0759037542420913],[-34.907391965702715,-8.0759384229152609],[-34.907416361576843,-8.0759690438382474],[-34.907446131592053,-8.0759945109253177],[-34.907480198281519,-8.0760139016264656],[-34.907517332831354,-8.0760265174024521],[-34.907556192353063,-8.076031900728454],[-34.907595370783895,-8.0760298565543511],[-34.907605513310244,-8.0760280969529585],[-34.907780891025858,-8.0760059683971264],[-34.907902010026483,-8.0759906852964303],[-34.90790460187602,-8.0760135189852793],[-34.907916475847109,-8.0761181455405726],[-34.907916853447851,-8.0761207068097693],[-34.907918644897485,-8.0761272466125913],[-34.907921548381239,-8.0761333771106489],[-34.907925475937752,-8.0761389115722864],[-34.907930307945932,-8.076143682398909],[-34.907935897677504,-8.0761475447200723],[-34.907942075853761,-8.0761503808924662],[-34.907945610561747,-8.0761514592310686],[-34.908061245058263,-8.0762315942937768],[-34.908121992590601,-8.0762802110108804],[-34.908243254576099,-8.0763772538328418],[-34.908244281231077,-8.0763783664701716],[-34.9083707648211,-8.0765154079230594],[-34.908379213294758,-8.0765245619631312],[-34.908446993579751,-8.0766281492292311],[-34.908477296094638,-8.0766985910559175],[-34.908485787035538,-8.0767183288046969],[-34.908491645243053,-8.0767328017990234],[-34.908494436223535,-8.0767396976553574],[-34.908580324558038,-8.0769629630230639],[-34.908633327214773,-8.0771006003416446],[-34.908651161053264,-8.07714608660471],[-34.908665740986677,-8.0771768933499182],[-34.908642481333516,-8.0771865741509465],[-34.908580307411192,-8.0772124520844351],[-34.908243696357516,-8.0773525510737105],[-34.907987102404661,-8.0774578975997606],[-34.907699333059277,-8.0775760427357479],[-34.907686023908326,-8.077580359355558],[-34.907705873020703,-8.0776686610376807],[-34.907708483121219,-8.0776843660711464],[-34.907712665241135,-8.0777095266431722],[-34.907732586379893,-8.0778293862579904],[-34.907721538437009,-8.0779093627565413],[-34.907724684721629,-8.0779210250118823],[-34.907739734374424,-8.0779351875391523],[-34.907761572574721,-8.0779446190573623],[-34.907785632315516,-8.0779550093709567],[-34.907894549321597,-8.0780100733740579],[-34.908018013719065,-8.0780642901649831],[-34.908060527552252,-8.0780812980181373],[-34.908096696759422,-8.0780957679180005],[-34.908104011992414,-8.0780982995293495],[-34.908140329611136,-8.0781130788271565],[-34.908192013984191,-8.0781305384006021],[-34.908252359764589,-8.0781522636221723],[-34.908295378031951,-8.078164262370322],[-34.90832918590003,-8.0781719573385775],[-34.908340025805593,-8.0781753575792514],[-34.908372128592482,-8.0781827368441235],[-34.908463839158728,-8.078203815718485],[-34.908534391215746,-8.0782157130687953],[-34.908567192889969,-8.0782212447589963],[-34.908721554402035,-8.0782453445827862],[-34.908747573824385,-8.0782486432252725],[-34.908839508626365,-8.0782602969704573],[-34.908912645265467,-8.0782610305256437],[-34.9089292655352,-8.0782621354644313],[-34.908982546729391,-8.0782618867532925],[-34.909056480553382,-8.0782639328821624],[-34.909119373887599,-8.0782660314420092],[-34.909144595811853,-8.0782615832194349],[-34.909177888173318,-8.0782557122894207],[-34.909297063001816,-8.078247809468543],[-34.909418748890566,-8.0782397402944071],[-34.909422062572396,-8.0782391444121977]]]},"properties":{"ID":0,"ZEC":"ZEC - AFOGADOS","OBJECTID":3,"DB2GSE.ST_Area(SHAPE)":281039.75694111502,"DB2GSE.SdeLength(SHAPE)":2354.2772897752006}},{"type":"Feature","id":4,"geometry":{"type":"Polygon","coordinates":[[[-34.9317458012233,-8.0857998016431143],[-34.932165594840114,-8.0847429524308367],[-34.934018555605796,-8.0852580296475338],[-34.93444453314455,-8.0854999954489806],[-34.937177736114791,-8.0862888362172818],[-34.937716083546938,-8.0864165127883592],[-34.937711225114661,-8.0864279521938158],[-34.937683879716296,-8.0865423684651692],[-34.937661199063236,-8.0866372703585352],[-34.937647890552498,-8.0866929543450734],[-34.937604805983213,-8.0868732267701056],[-34.937579128066979,-8.0869920523331231],[-34.937406699235154,-8.087789972420623],[-34.937362507310958,-8.0879750732309006],[-34.937311020014882,-8.0881907339491299],[-34.937302851944061,-8.0882258426608242],[-34.937272544064818,-8.0883561029458182],[-34.937254906529724,-8.0884319054455265],[-34.937165075258065,-8.0888179881989846],[-34.937149695219432,-8.0889007430006963],[-34.937091283735299,-8.0892150270326475],[-34.937081435723812,-8.0892680150096687],[-34.937078988530892,-8.0892811814731136],[-34.937033269612655,-8.0895203970463427],[-34.936965409833832,-8.089875458863899],[-34.936929270308212,-8.0900812378616997],[-34.936876430783791,-8.0903821173382724],[-34.9368302607256,-8.0906663107457533],[-34.936809667271532,-8.0907306440157605],[-34.936809425053617,-8.0907314018559831],[-34.936772708954528,-8.0907938579422733],[-34.936403605371559,-8.0913012366173138],[-34.936110667792278,-8.0916985535876336],[-34.936081159615718,-8.0917490139601167],[-34.936078245126843,-8.0917479130842498],[-34.935914736029282,-8.0920626359024634],[-34.935962307487884,-8.0926006043345531],[-34.936013436865608,-8.0932551659103495],[-34.936054178953235,-8.0943732208920345],[-34.934549498343742,-8.0944234109333308],[-34.929633064994988,-8.0897344739957084],[-34.929815310347486,-8.0886649542065125],[-34.930256848571766,-8.0876367062729031],[-34.930829799852305,-8.0869881632762546],[-34.931231172337597,-8.0865987646364808],[-34.9317458012233,-8.0857998016431143]],[[-34.936242432844388,-8.089419302509592],[-34.936208974791015,-8.0891034912887712],[-34.936196419970443,-8.0890212133525221],[-34.936172186858649,-8.0888624012830945],[-34.936148154504117,-8.0887192256461447],[-34.936100475649276,-8.08851370383573],[-34.935992841033126,-8.088362352226472],[-34.935822205058329,-8.0881869711073744],[-34.935692764099038,-8.0880271179456269],[-34.935656612451297,-8.087966806343049],[-34.935614773033301,-8.0879367260814785],[-34.935591922423065,-8.0879010456344815],[-34.93558455713837,-8.0878882655907134],[-34.935567510359391,-8.0878181548238519],[-34.935480754572779,-8.0876642549752518],[-34.935418469922269,-8.0875647426753261],[-34.935268561194803,-8.0873173392580888],[-34.935270185058336,-8.087316215060028],[-34.935308162766198,-8.0872915416408837],[-34.935218178800326,-8.0869759969759993],[-34.935178300257846,-8.0868598406194838],[-34.935112173024983,-8.0866507309248199],[-34.935041176929801,-8.0864514423876361],[-34.935003721768965,-8.0863279254638574],[-34.934891239069103,-8.08606763891515],[-34.934807839488222,-8.085971946597672],[-34.934667022370164,-8.0858333892456926],[-34.934666555723432,-8.0858329294841944],[-34.934632557135544,-8.0858030659628195],[-34.934526219999384,-8.0859235888434853],[-34.934506219510119,-8.0859869763040972],[-34.934499041634361,-8.0860532620181509],[-34.934507751415516,-8.086055046061924],[-34.934501474797386,-8.086083372644822],[-34.93451569295727,-8.0860878689837836],[-34.93450449659931,-8.0861408642543839],[-34.934493252724536,-8.0861370824994125],[-34.934488215866331,-8.0862005491832232],[-34.934514529840911,-8.0862094253414583],[-34.934506597133172,-8.0862427718369236],[-34.934488735482887,-8.0863095447964017],[-34.93446762167369,-8.086304187904064],[-34.93440768153642,-8.0863726942775056],[-34.934340016541917,-8.0863604022056386],[-34.934307012980803,-8.0863535502431461],[-34.934280784841896,-8.0864545975025806],[-34.934218947598389,-8.0865529348481413],[-34.934199139844587,-8.0866550546571645],[-34.934184732294518,-8.0867261552407186],[-34.934162101976213,-8.0868768993608935],[-34.934155085010495,-8.086951639027669],[-34.934176015957668,-8.0869601130666808],[-34.934227712252174,-8.0869757461912481],[-34.934169758719406,-8.0871453172162031],[-34.934124080142219,-8.0871501866486053],[-34.933926075750293,-8.0871104362343864],[-34.933918950597622,-8.087169528158876],[-34.933893757727056,-8.0872982399825304],[-34.933865925591292,-8.0873889985779872],[-34.933832177169002,-8.0875275490379437],[-34.933802988354152,-8.0875913714563907],[-34.933647555826639,-8.0877546831948912],[-34.93362568056704,-8.0877759144772234],[-34.933826191036701,-8.0880762401784771],[-34.933973474719274,-8.0882959872289337],[-34.934325672131472,-8.0887966349196532],[-34.934406144372318,-8.0888998040389914],[-34.934468286380259,-8.0889794723046275],[-34.934703739507391,-8.0891338930082473],[-34.934921888944686,-8.0892675760814541],[-34.93510686039135,-8.0894014162105847],[-34.935320101108438,-8.0895363463514176],[-34.935517905651281,-8.0896360453515239],[-34.935592367818643,-8.0896795697221151],[-34.935669566993774,-8.089778816838006],[-34.935727143064064,-8.0898528371496621],[-34.935811478060224,-8.0897569116049084],[-34.935964593404663,-8.0896533109637936],[-34.936085981848336,-8.0895964003962018],[-34.936174247535284,-8.0896206155542352],[-34.936242432844388,-8.089419302509592]]]},"properties":{"ID":0,"ZEC":"ZEC - AREIAS","OBJECTID":4,"DB2GSE.ST_Area(SHAPE)":528592.00452100497,"DB2GSE.SdeLength(SHAPE)":4278.547251707666}},{"type":"Feature","id":5,"geometry":{"type":"Polygon","coordinates":[[[-34.894145364259046,-8.0182927668856028],[-34.894270891724993,-8.0182967344594918],[-34.896596891554658,-8.0202379335931546],[-34.897185550683425,-8.020649044408243],[-34.897418121863886,-8.0209918277577064],[-34.897730308639069,-8.0216840801040554],[-34.897975351300978,-8.0221284667507931],[-34.898539515771695,-8.0228195554300541],[-34.898571178287163,-8.0231782146825061],[-34.898215905027257,-8.023544638711213],[-34.89794379131353,-8.0237312755775605],[-34.897476542456829,-8.02388592159617],[-34.897192011770194,-8.0238531466895875],[-34.894155713249553,-8.023223669829278],[-34.89381708941643,-8.0231702110229168],[-34.893074888372652,-8.0211619181088558],[-34.892455743577855,-8.0192956223890484],[-34.892569781107795,-8.019046325309354],[-34.893292680372603,-8.0186483166317899],[-34.893555104161422,-8.0183122249932097],[-34.894145364259046,-8.0182927668856028]]]},"properties":{"ID":0,"ZEC":"ZEC - ÁGUA FRIA","OBJECTID":5,"DB2GSE.ST_Area(SHAPE)":244632.717220925,"DB2GSE.SdeLength(SHAPE)":1997.8598835386417}},{"type":"Feature","id":6,"geometry":{"type":"Polygon","coordinates":[[[-34.918853007055077,-8.0269796609625459],[-34.918840995147491,-8.0270261677582813],[-34.918758990012201,-8.0273436603812964],[-34.919072845214309,-8.0276123254329441],[-34.919059237844543,-8.0277681770970357],[-34.919065020662941,-8.027778155394719],[-34.919048102534468,-8.0278396916257471],[-34.919049998055549,-8.0282434465210404],[-34.91852102740026,-8.0285803591454972],[-34.918401097163297,-8.0286909700594471],[-34.917985866053002,-8.0291259698395923],[-34.917872045711569,-8.0290107314791008],[-34.917692159460387,-8.0291787920569764],[-34.917675133810597,-8.0292174613949481],[-34.917471808593596,-8.029279867428885],[-34.917296404985116,-8.0294864969828001],[-34.917358559140133,-8.029591971951259],[-34.917268699617821,-8.0296938683644861],[-34.917100590581065,-8.0293158995405864],[-34.91699531293667,-8.0291877571506785],[-34.916796670677549,-8.0287198873461474],[-34.916497039592514,-8.0287327178596453],[-34.91647362212472,-8.0286313493059005],[-34.916469239807434,-8.0286142187093397],[-34.916477816808865,-8.0286084623546472],[-34.916464817285437,-8.0285885132466479],[-34.916445727641275,-8.0284928418321488],[-34.916355439163354,-8.0285032667773599],[-34.916344980160666,-8.028413273360016],[-34.916320603633658,-8.0284133869011232],[-34.916317474378204,-8.0283576604608164],[-34.916292837444296,-8.0283020341958409],[-34.916209821832709,-8.0279520749389075],[-34.916200066965743,-8.0279360406727438],[-34.916186800406415,-8.0278589233475302],[-34.916155276607753,-8.0277872503415608],[-34.916125787747909,-8.0276909121968707],[-34.916063554663957,-8.0274918213397601],[-34.916027538125675,-8.0273794356827768],[-34.915980672795676,-8.027246732853488],[-34.916038699903396,-8.027236815381535],[-34.916126708688111,-8.0271988877772031],[-34.916000162770345,-8.0268161236579889],[-34.915984612099585,-8.0267679587723837],[-34.915983039637759,-8.026766281820759],[-34.915856741301411,-8.0267420957551945],[-34.915732650672439,-8.0263729732158549],[-34.915715220831643,-8.0263254119306566],[-34.915469038801362,-8.0264218418221436],[-34.915430310648638,-8.0263172101803058],[-34.915350996033716,-8.0261193892334628],[-34.915270868441937,-8.0261559699670233],[-34.915234177290195,-8.0260780077774765],[-34.914951821768746,-8.0262070019808949],[-34.914901398971566,-8.0260547831271616],[-34.915336363567718,-8.0258526631337386],[-34.915220483019091,-8.0256035592216577],[-34.915961065468693,-8.025340940305119],[-34.916577590413631,-8.0251246345998233],[-34.917146346488202,-8.0249142679223855],[-34.917650294373281,-8.0247461267010092],[-34.917514991700521,-8.0244323216818287],[-34.917581843272266,-8.0244186707850069],[-34.917608100135929,-8.024309925146131],[-34.917563305408734,-8.0241348122569711],[-34.917639198349647,-8.0240105901590084],[-34.917426948899298,-8.0235961423119431],[-34.917707496918318,-8.0234900237143272],[-34.917840387802471,-8.023697122417401],[-34.917920514615581,-8.0236605413469029],[-34.918012935174517,-8.0237992245115919],[-34.918119247204899,-8.023638652875654],[-34.917994558001361,-8.0235496673085063],[-34.918051564683694,-8.0234750813119753],[-34.918148531477641,-8.0233602889233016],[-34.918058237415174,-8.0232673315629999],[-34.918312082334438,-8.0231746765140795],[-34.91837588664707,-8.0229190200268459],[-34.918475087833258,-8.0228728211800249],[-34.918606745246549,-8.02281694313562],[-34.918575949744749,-8.0227732567295096],[-34.918545441173833,-8.022790549895257],[-34.918429569132194,-8.0225433528336989],[-34.918700530536078,-8.0224315611503005],[-34.918883663989071,-8.0223449527157076],[-34.91863463416194,-8.0218334873903245],[-34.918644157118642,-8.0218258208542945],[-34.918593851067925,-8.0216983752310771],[-34.918740820455334,-8.0216462374188797],[-34.918840181284651,-8.0216343398039296],[-34.918998648033842,-8.0215878656320783],[-34.919166656455161,-8.0215375354036222],[-34.919226933483884,-8.021752595156471],[-34.919427307732619,-8.0216735283716858],[-34.919463683078469,-8.021786031322117],[-34.9196024604909,-8.0217196390713088],[-34.919853435751456,-8.0220343332636475],[-34.920017907323199,-8.0219435234630438],[-34.919977511507106,-8.0218908295628975],[-34.919928833118242,-8.0219067782044799],[-34.919908518287137,-8.0218554199828862],[-34.919968592597698,-8.0218236965488732],[-34.919904758312505,-8.0216653473857349],[-34.919881527763344,-8.0216039974865332],[-34.920068982454879,-8.0215216564876162],[-34.920159187735415,-8.0214940796054339],[-34.920252402665056,-8.0214965035625241],[-34.920341161472571,-8.0214660756470106],[-34.920422724638485,-8.0214299639806228],[-34.920427066710999,-8.0214385196708058],[-34.920510109855165,-8.0214124054474372],[-34.920807917476964,-8.0213181148791879],[-34.920765363042108,-8.0211110723642527],[-34.921225351407628,-8.0210488976663417],[-34.921787966560188,-8.0208561824480267],[-34.921886094014454,-8.0209886442381304],[-34.921976863861943,-8.0210811220201652],[-34.921951174771316,-8.0211069688165182],[-34.921866872464498,-8.0211702488403258],[-34.92179260007164,-8.0212320536247343],[-34.921799843605946,-8.0212477414608792],[-34.921738408578719,-8.0212951931036187],[-34.921709557100598,-8.0212581671750947],[-34.921695292482553,-8.0212739553882422],[-34.922211530079096,-8.0218918408971902],[-34.922124433682853,-8.0219708556824276],[-34.921752427570958,-8.0215323834415777],[-34.921645163815519,-8.0215914835462119],[-34.921569097335322,-8.0214748781804222],[-34.92142813286398,-8.0215841590794525],[-34.921483969583726,-8.0216677475948455],[-34.921369626878828,-8.0217464138511829],[-34.921299282180605,-8.0218303525008654],[-34.921207722666225,-8.021875086920593],[-34.921201906362512,-8.0218579630895821],[-34.921131814744207,-8.0218940213901497],[-34.921344405446639,-8.0222789266660275],[-34.921461448818306,-8.022469899743065],[-34.921593018824048,-8.022700824179573],[-34.921620658059339,-8.0227850215824059],[-34.921450518067338,-8.0228901507936943],[-34.92117010467576,-8.0224140900225152],[-34.920969966876534,-8.0225436556854017],[-34.920803468624861,-8.0222028423536571],[-34.920721066540068,-8.0220603016791561],[-34.920638110527825,-8.0221049949594292],[-34.920563763949453,-8.0221510782953853],[-34.920500955977843,-8.0222113992262738],[-34.920392256960362,-8.0222705057800781],[-34.920329354107714,-8.0223108184164307],[-34.92036985156323,-8.022384949830494],[-34.920261192736227,-8.0224526321179876],[-34.920692604140491,-8.0230223201310977],[-34.920732927259785,-8.0230592926001698],[-34.920763239619532,-8.0231020281578758],[-34.920730347962916,-8.0231207619114322],[-34.920660336629361,-8.0231739707887293],[-34.920653113217163,-8.0231625708072141],[-34.920626051285616,-8.0232012869775424],[-34.92022975030735,-8.0227800766790764],[-34.91997267619773,-8.0223882314731902],[-34.919676978904825,-8.0226268663086664],[-34.919627357010427,-8.0227471545661011],[-34.919381562017222,-8.0229255277023857],[-34.919541714411807,-8.0231363110410836],[-34.919806963142413,-8.0234366461632725],[-34.91964267789767,-8.0235674735134435],[-34.919184049710935,-8.02300362838022],[-34.919144076315447,-8.0230409753477741],[-34.919086962621044,-8.0230926945530676],[-34.919278653270808,-8.023301900764082],[-34.919359232325284,-8.023361553994798],[-34.919337831346482,-8.0233845220557178],[-34.919156458991928,-8.0232352957959403],[-34.919133342403207,-8.02319824293272],[-34.919009613643411,-8.0231102060976713],[-34.918989592954425,-8.0231217340161116],[-34.918864218526451,-8.023294225198871],[-34.918846530331834,-8.0233273394177758],[-34.919503498987709,-8.0237181147345762],[-34.920093965734807,-8.0240609219455834],[-34.920418431136142,-8.0242144026880506],[-34.920818840315697,-8.0244356154999217],[-34.920639860770976,-8.0249243018674736],[-34.920647402402508,-8.0252434776384725],[-34.920629671330744,-8.0253278804960804],[-34.920309681049119,-8.0253835785039946],[-34.920135583481184,-8.0256253054471109],[-34.919894285156239,-8.0257107512977761],[-34.919725919441504,-8.0258861989576502],[-34.919021024891727,-8.0263291550816032],[-34.918989384548304,-8.0264516549559808],[-34.917822376043375,-8.0259048983439918],[-34.917822589217394,-8.0259847668905753],[-34.917253482587938,-8.0259110621943801],[-34.917258939962714,-8.0259613271583525],[-34.917194190675033,-8.0259748037292731],[-34.917276287010814,-8.0265381957920798],[-34.917298166367722,-8.026542523769832],[-34.917270303842514,-8.0267084861017608],[-34.917212889372593,-8.0266966029739155],[-34.917131259686165,-8.027196759107067],[-34.917443179201847,-8.0272604227701656],[-34.917545217593222,-8.027102813689897],[-34.918002480944459,-8.0273969271533279],[-34.917993585651381,-8.0274123539766205],[-34.918427069896559,-8.0276899437852922],[-34.91847337176349,-8.0276220135319996],[-34.918545395686664,-8.0276671376451603],[-34.918735277567862,-8.0273381802251826],[-34.918221874587644,-8.0269983306220833],[-34.918377199215797,-8.0267609741741985],[-34.918853007055077,-8.0269796609625459]]]},"properties":{"ID":0,"ZEC":"ZEC - CASA AMARELA","OBJECTID":6,"DB2GSE.ST_Area(SHAPE)":236076.23092286501,"DB2GSE.SdeLength(SHAPE)":5188.960447768487}},{"type":"Feature","id":7,"geometry":{"type":"Polygon","coordinates":[[[-34.921905679717916,-8.0504409711951421],[-34.921904432094841,-8.0504853239441765],[-34.921900277397967,-8.0505294995527112],[-34.921893231973542,-8.050573309899578],[-34.921883326684849,-8.0506165676996595],[-34.921870605098093,-8.0506590865123151],[-34.921855119875559,-8.0507006852786027],[-34.921836938205125,-8.0507411855836821],[-34.921816137273574,-8.0507804134860894],[-34.9217928070005,-8.0508182022171457],[-34.921767047300222,-8.0508543885775836],[-34.921738968111526,-8.0508888192657846],[-34.921708689367925,-8.050921344549522],[-34.921676341040254,-8.0509518273063847],[-34.921642062195552,-8.0509801357956956],[-34.921605999212737,-8.051006149995322],[-34.921568305757155,-8.0510297561774351],[-34.921560268165962,-8.0510343593291136],[-34.921414043770618,-8.0511167757773716],[-34.921382920232048,-8.0511332732844068],[-34.921342457896905,-8.0511517745269181],[-34.921300868151476,-8.0511675986957822],[-34.921258328458009,-8.0511806771549086],[-34.921215022696451,-8.0511909557031487],[-34.921171134789418,-8.051198389179909],[-34.921126852347484,-8.0512029450641283],[-34.921082366677688,-8.0512046052825976],[-34.921037867319853,-8.0512033617150465],[-34.920993543882069,-8.0511992207060263],[-34.92094958783337,-8.0511921985360644],[-34.920906187082785,-8.0511823259674991],[-34.920863525970788,-8.0511696464362803],[-34.920821788880403,-8.0511542124188473],[-34.920781153913452,-8.0511360908861676],[-34.920741795590338,-8.0511153587707085],[-34.920703881234623,-8.0510921056955613],[-34.92066757458845,-8.051066431245367],[-34.92063303037024,-8.0510384449917414],[-34.92060039608873,-8.0510082664847733],[-34.92056981204302,-8.0509760252530604],[-34.920541409504175,-8.0509418599080949],[-34.920515309799683,-8.0509059163404757],[-34.920491624313414,-8.0508683477198169],[-34.920487006783667,-8.0508603367442184],[-34.920427775043237,-8.0507559426135575],[-34.920411222759562,-8.0507249212636065],[-34.920392660107971,-8.0506845929647408],[-34.920376783434726,-8.0506431410012009],[-34.920363661606849,-8.050600743151314],[-34.920353348991313,-8.0505575799734483],[-34.920345890910049,-8.0505138374926197],[-34.920341319990555,-8.0504697026972707],[-34.920339654355985,-8.0504253644518524],[-34.920340902151928,-8.050381011667378],[-34.920345057023972,-8.0503368360349299],[-34.920352102623177,-8.050293025675975],[-34.920362008083515,-8.0502497678758065],[-34.920374729836183,-8.0502072490751111],[-34.920390215216315,-8.0501656503326178],[-34.920408397033668,-8.0501251500628257],[-34.920429198099207,-8.0500859222066428],[-34.92045252849131,-8.0500481335320053],[-34.920478288293914,-8.0500119472373175],[-34.920506367566738,-8.0499775166232208],[-34.920536646375069,-8.049944991420789],[-34.920568994747221,-8.049914508751181],[-34.920603273615626,-8.0498862003537379],[-34.920639336601155,-8.0498601862492283],[-34.920677030038625,-8.0498365801640652],[-34.920685067623467,-8.0498319770326443],[-34.920831291828236,-8.0497495609133356],[-34.920862415306608,-8.0497330634667552],[-34.920902877549111,-8.0497145622984387],[-34.920944467184583,-8.0496987382001652],[-34.920987006752327,-8.0496856598067641],[-34.921030312374299,-8.0496753813181865],[-34.921074200129951,-8.049667947894017],[-34.921118482411003,-8.0496633920542795],[-34.921162967912885,-8.0496617318714385],[-34.921207467098355,-8.0496629754650275],[-34.921251790361964,-8.0496671164900491],[-34.921295746237391,-8.0496741386655941],[-34.921339146818283,-8.0496840112291945],[-34.921381807766799,-8.0496966907449519],[-34.921423544702463,-8.0497121247365424],[-34.921464179525849,-8.0497302462334588],[-34.92150353771877,-8.049750978303738],[-34.921541451959648,-8.0497742313249905],[-34.921577758508093,-8.049799905713467],[-34.921612302647169,-8.0498278918985449],[-34.921644936869271,-8.0498580703312292],[-34.921675520876185,-8.0498903114841109],[-34.921703923397331,-8.0499244767470319],[-34.92173002310539,-8.049960420230736],[-34.921753708616308,-8.0499979887669628],[-34.921758326153792,-8.0500059997250357],[-34.921817558035116,-8.0501103936124974],[-34.921834110376395,-8.0501414148872161],[-34.921852673117741,-8.0501817430940807],[-34.921868549898548,-8.0502231949702328],[-34.921881671850201,-8.0502655927387039],[-34.921891984603867,-8.0503087558423427],[-34.921899442835532,-8.0503524982572738],[-34.921904013915409,-8.0503966329960424],[-34.921905679717916,-8.0504409711951421]]]},"properties":{"ID":0,"ZEC":"ZEC - CAXANGÁ","OBJECTID":7,"DB2GSE.ST_Area(SHAPE)":22672.66519218,"DB2GSE.SdeLength(SHAPE)":534.72822878112163}},{"type":"Feature","id":8,"geometry":{"type":"Polygon","coordinates":[[[-34.926585859297653,-8.0605144195841074],[-34.926584613320109,-8.0605587713057467],[-34.926580458396025,-8.0606029477542016],[-34.926573413577131,-8.0606467580836991],[-34.926563509724133,-8.0606900150092144],[-34.926550787692598,-8.0607325348148198],[-34.926535302846908,-8.0607741328123339],[-34.926517121479073,-8.0608146333026554],[-34.926496320774575,-8.0608538623435653],[-34.926472991550611,-8.0608916513530282],[-34.926447231003905,-8.0609278380473768],[-34.926419151789979,-8.0609622682067794],[-34.926388873855196,-8.0609947948095044],[-34.926356525343891,-8.0610252780277509],[-34.92632224623523,-8.0610535870186641],[-34.926286181997966,-8.0610796008581609],[-34.926248488125779,-8.0611032085197039],[-34.926209326504775,-8.0611243079872903],[-34.926168863620703,-8.0611428107841849],[-34.926127273250202,-8.0611586356318945],[-34.926084733769528,-8.0611717147911968],[-34.92605396326524,-8.0611793242258738],[-34.925906429475241,-8.0612121912507586],[-34.925893893454514,-8.0612148610872865],[-34.925850004714242,-8.0612222952961368],[-34.925805721380542,-8.0612268519283763],[-34.925761234764309,-8.061228512907487],[-34.92571673440942,-8.0612272701100505],[-34.925672409928211,-8.0612231298772485],[-34.9256284527942,-8.0612161084863256],[-34.925585050921079,-8.061206236696222],[-34.925542388654108,-8.0611935579396174],[-34.925500650381274,-8.0611781246896275],[-34.925460014209442,-8.0611600039138924],[-34.925420654664201,-8.0611392725416664],[-34.92538273907433,-8.0611160201928804],[-34.9253464311873,-8.0610903464490153],[-34.925311885726785,-8.0610623608786813],[-34.925279250206856,-8.061032183029063],[-34.925248664931921,-8.0609999424259229],[-34.925220261178339,-8.0609657776780619],[-34.925194160278785,-8.0609298346735407],[-34.925170473622231,-8.0608922665795539],[-34.925149302662511,-8.060853235650649],[-34.92513073889269,-8.06081290780436],[-34.925114861140976,-8.0607714562502153],[-34.925101738274783,-8.0607290578606996],[-34.925094103429807,-8.0606983900736804],[-34.925068371975982,-8.0605836574804339],[-34.925065693226777,-8.0605711633109838],[-34.925058235128077,-8.0605274210941236],[-34.925053662429065,-8.0604832856185684],[-34.925051995986344,-8.0604389475431315],[-34.92505324304188,-8.0603945957823449],[-34.925057398138726,-8.0603504193104154],[-34.92506444222245,-8.0603066089734003],[-34.92507434715084,-8.0602633520437781],[-34.925087069344549,-8.0602208322501987],[-34.925102554339389,-8.0601792333724269],[-34.925120735849553,-8.0601387329172347],[-34.925141535780284,-8.0600995048305784],[-34.925164866025,-8.0600617158729033],[-34.92519062576126,-8.060025529248092],[-34.925218705960361,-8.0599910991579264],[-34.925248983953566,-8.0599585726357681],[-34.925281332502735,-8.0599280895039325],[-34.925315611628221,-8.0598997806039776],[-34.925351675861137,-8.0598737668585549],[-34.925389368800879,-8.0598501592970742],[-34.925428531278804,-8.0598290590172414],[-34.925468994101671,-8.0598105572192669],[-34.925510584388256,-8.0597947324638639],[-34.925553123768026,-8.0597816533929443],[-34.925583894191085,-8.0597740440181198],[-34.925731426629348,-8.0597411763242057],[-34.925743963520524,-8.0597385074027041],[-34.925787852111796,-8.0597310732419629],[-34.925832134380229,-8.0597265166539316],[-34.925876621738617,-8.0597248557014751],[-34.925921121924432,-8.059726098520251],[-34.925965445327996,-8.0597302387684948],[-34.926009403199657,-8.0597372601559343],[-34.926052804902945,-8.059747131032168],[-34.926095466108052,-8.059759810676729],[-34.926137204230791,-8.0597752438960821],[-34.926177840263883,-8.0597933646312452],[-34.926217200591033,-8.0598140959493101],[-34.926255116071289,-8.0598373482395811],[-34.926291423865983,-8.0598630219171969],[-34.926325969252865,-8.0598910074145529],[-34.926358604719034,-8.0599211851856065],[-34.926389189956602,-8.0599534248017903],[-34.926417593702553,-8.0599875903677223],[-34.926443694611514,-8.0600235332846104],[-34.926467381298586,-8.060061101290664],[-34.926488551402294,-8.0601001321370482],[-34.926507115242835,-8.0601404598990509],[-34.926522993083751,-8.0601819113728048],[-34.926536116963156,-8.0602243096828161],[-34.926543751888815,-8.0602549765160827],[-34.92656948369828,-8.0603697098292724],[-34.926572161581475,-8.0603822039826749],[-34.926579620737122,-8.0604259461302732],[-34.926584193595524,-8.0604700815500578],[-34.926585859297653,-8.0605144195841074]]]},"properties":{"ID":0,"ZEC":"ZEC - ABDIAS","OBJECTID":8,"DB2GSE.ST_Area(SHAPE)":22326.425236104998,"DB2GSE.SdeLength(SHAPE)":530.49734634673439}},{"type":"Feature","id":9,"geometry":{"type":"Polygon","coordinates":[[[-34.928451502064803,-7.9994757113297217],[-34.928450253990967,-7.9995200630929713],[-34.92844609922782,-7.9995642394845161],[-34.928439054109383,-7.9996080496715916],[-34.928429149497504,-7.9996513063697785],[-34.928416428968134,-7.9996938258514261],[-34.928400945166487,-7.9997354243464649],[-34.928382765278535,-7.9997759243452355],[-34.928361966483486,-7.9998151519075904],[-34.928338638691706,-7.9998529402663721],[-34.92831288180686,-7.9998891262238443],[-34.928284805751488,-7.9999235555760944],[-34.928254530458503,-7.9999560813048847],[-34.928222185871121,-7.9999865635776191],[-34.92818791104456,-8.0000148715597881],[-34.928151852336363,-8.0000408843273494],[-34.928114163406377,-8.0000644908668637],[-34.928075006123784,-8.0000855900711727],[-34.928052819049867,-8.0000961310608698],[-34.927945812726918,-8.0001446237129574],[-34.927927543331904,-8.0001525833920439],[-34.927885958720708,-8.0001684069756998],[-34.927843425232211,-8.0001814857406579],[-34.927800123989861,-8.0001917627889974],[-34.927756241626788,-8.00019919566199],[-34.92771196572987,-8.0002037518412479],[-34.927667485755144,-8.0002054105524554],[-34.927622991235175,-8.000204167294136],[-34.927578674457365,-8.0002000247844567],[-34.927534724157844,-8.000193002031402],[-34.927491328221059,-8.0001831297997352],[-34.927448673671229,-8.0001704488030363],[-34.927406942158875,-8.0001550142449798],[-34.927366312664702,-8.0001368921905733],[-34.927326959685594,-8.0001161595744836],[-34.927289050526646,-8.0000929069260174],[-34.927252748894816,-8.000067231119683],[-34.927218208592961,-8.0000392444454445],[-34.927185579825768,-8.0000090655384284],[-34.927155000155977,-7.9999768248456657],[-34.927126601730095,-7.999942658263886],[-34.927100504963811,-7.9999067144014369],[-34.927076823941135,-7.9998691455124824],[-34.927055657374872,-7.99983011386764],[-34.927045082732917,-7.999807996570409],[-34.926999671995858,-7.9997084291916769],[-34.926991686913851,-7.9996902180026508],[-34.926975812843985,-7.9996487658871036],[-34.926962692371063,-7.9996063679279246],[-34.926952382573411,-7.9995632046712393],[-34.926944926043824,-7.9995194621550905],[-34.926940355403104,-7.9994753273681249],[-34.926938691485994,-7.9994309882579557],[-34.926939938819572,-7.9993866364645383],[-34.926944094662602,-7.9993424609494568],[-34.926951139949153,-7.9992986507504877],[-34.926961043814671,-7.9992553931522394],[-34.926973765414182,-7.9992128745817661],[-34.926989249366407,-7.9991712761095792],[-34.927007429394202,-7.9991307761447397],[-34.927028228311904,-7.9990915477228288],[-34.927051555312978,-7.999053760326718],[-34.927077313195838,-7.9990175735243536],[-34.927105389328425,-7.9989831442434891],[-34.92713566467939,-7.9989506185929953],[-34.927168008397693,-7.998920136408465],[-34.927202284148436,-7.9988918285104029],[-34.927238342853123,-7.9988658158341703],[-34.927276031758979,-7.9988422093875871],[-34.927315188094717,-7.9988211111846486],[-34.927337376038594,-7.9988105693376239],[-34.927444381253849,-7.9987620769103058],[-34.927462650607879,-7.9987541172646086],[-34.927504235115201,-7.998738293752818],[-34.927546769395335,-7.9987252159547948],[-34.927590069593116,-7.9987149380678684],[-34.927633951810982,-7.998707505249091],[-34.927678228464323,-7.9987029500159172],[-34.92772270827291,-7.9987012904381576],[-34.927767201723718,-7.9987025346327894],[-34.927811519235767,-7.9987066762522492],[-34.927855469367522,-7.9987136990130434],[-34.927898864237214,-7.9987235721502348],[-34.927941519531267,-7.9987362522254228],[-34.927983250893597,-7.9987516867599444],[-34.928023880248574,-7.9987698087809065],[-34.92806323310149,-7.9987905413541345],[-34.928101142153487,-7.998813794855069],[-34.928137443686559,-7.9988394696979306],[-34.928171983005136,-7.9988674563100837],[-34.928204612622245,-7.9988976351407679],[-34.928235192259422,-7.9989298766608563],[-34.928263590664848,-7.9989640422585877],[-34.9282896865288,-7.9989999860432626],[-34.928313368483629,-7.9990375548453638],[-34.928334535095232,-7.9990765864083553],[-34.928345109770561,-7.9990987036612049],[-34.928390520695991,-7.9991982708329923],[-34.928398505818848,-7.9992164819828666],[-34.92841437999229,-7.9992579340142758],[-34.928427499681852,-7.999300332803192],[-34.928437810515462,-7.9993434950799056],[-34.928445267190178,-7.9993872375323027],[-34.928449837083029,-7.9994313731727846],[-34.928451502064803,-7.9994757113297217]]]},"properties":{"ID":0,"ZEC":"ZEC - NOVA DESCOBERTA","OBJECTID":9,"DB2GSE.ST_Area(SHAPE)":21574.862450655,"DB2GSE.SdeLength(SHAPE)":521.27508929036389}},{"type":"Feature","id":10,"geometry":{"type":"Polygon","coordinates":[[[-34.906795364467001,-8.0225574373937469],[-34.906794114555005,-8.0226017896152264],[-34.906789957760381,-8.0226459663489162],[-34.906782910425825,-8.022689776760485],[-34.906773003422742,-8.0227330335645952],[-34.906760280337295,-8.0227755530331741],[-34.906744793825609,-8.0228171513961311],[-34.906726611085276,-8.0228576511444203],[-34.906705809307716,-8.0228968783389352],[-34.906682478416066,-8.0229346662140877],[-34.906656718327319,-8.0229708515742448],[-34.906628638977701,-8.0230052802180403],[-34.906598360314149,-8.0230378051302402],[-34.906566012294412,-8.0230682864817826],[-34.906531733988437,-8.0230965934420642],[-34.906495671768624,-8.0231226050914568],[-34.906457979309806,-8.0231462104212632],[-34.906418819403271,-8.0231673083253341],[-34.906378358514758,-8.023185807625282],[-34.906346714915735,-8.0231981265534191],[-34.906222777768676,-8.0232428570272543],[-34.906212832368276,-8.0232463602414228],[-34.906170295428417,-8.0232594365802026],[-34.906126990801084,-8.023269712948208],[-34.906083105121311,-8.0232771441814066],[-34.90603882599018,-8.0232816977684269],[-34.905994341983259,-8.0232833556585028],[-34.905949845350484,-8.0232821097287612],[-34.905905525688233,-8.0232779663337741],[-34.905861572639282,-8.0232709417728021],[-34.905818174099771,-8.0232610668183391],[-34.905775517117853,-8.0232483849039458],[-34.905733783341738,-8.0232329485289569],[-34.905693151766037,-8.0232148246701289],[-34.905653795989636,-8.0231940902741687],[-34.905615886042334,-8.0231708349613022],[-34.905579582023201,-8.023145158342567],[-34.905545041356561,-8.0231171699862376],[-34.905512410629022,-8.0230869894556278],[-34.905481830124373,-8.0230547462879915],[-34.905453431098486,-8.0230205791031519],[-34.905427334863838,-8.0229846337995401],[-34.905403652789502,-8.0229470635542111],[-34.905382487212393,-8.022908029722668],[-34.905378329095477,-8.0228995778258998],[-34.905318978063349,-8.0227767678157775],[-34.905304575872456,-8.0227448900372131],[-34.905288702351989,-8.0227034368224768],[-34.905275582655456,-8.0226610378616563],[-34.905265273857907,-8.022617873705185],[-34.905257818547767,-8.0225741303949327],[-34.905253250247576,-8.0225299949187203],[-34.905251587069387,-8.0224856561438322],[-34.905252837148275,-8.022441302983605],[-34.905256994120037,-8.022397127130656],[-34.905264041626644,-8.0223533167074965],[-34.905273947887061,-8.0223100590038428],[-34.905286672046103,-8.0222675404473396],[-34.905302158711486,-8.0222259421083297],[-34.905320341594461,-8.022185442395342],[-34.905341143501403,-8.0221462152469449],[-34.905364474507181,-8.0221084274279804],[-34.905390234693066,-8.0220722421332216],[-34.905418314117156,-8.0220378126590077],[-34.905448592843982,-8.0220052887315916],[-34.905480939995357,-8.0219748074708033],[-34.905515219225983,-8.0219465005974033],[-34.90555128143815,-8.0219204881381891],[-34.905588973876789,-8.0218968838084148],[-34.905628133738546,-8.0218757860005869],[-34.905668594562727,-8.0218572867957203],[-34.905674766698283,-8.0218547403937936],[-34.905790347475296,-8.0218077172451459],[-34.905825763336885,-8.0217944415908793],[-34.905868301061751,-8.0217813653157837],[-34.905911604646157,-8.0217710890139404],[-34.90595549017813,-8.0217636578356739],[-34.905999770058848,-8.0217591042914389],[-34.906044252994207,-8.0217574464437273],[-34.906088749457787,-8.0217586924021802],[-34.906133069855862,-8.0217628358116677],[-34.906177022734362,-8.021769860381033],[-34.90622042019978,-8.0217797353375779],[-34.906263077927633,-8.0217924172351633],[-34.906304811551152,-8.0218078535872852],[-34.906345442985156,-8.0218259774132701],[-34.906384797725956,-8.0218467117712091],[-34.906422708466707,-8.0218699670289748],[-34.906459011482113,-8.0218956435931403],[-34.90649355207028,-8.0219236318837961],[-34.906526182738801,-8.0219538123429981],[-34.906556763204669,-8.0219860554346294],[-34.906585162212551,-8.0220202225401582],[-34.906611258450127,-8.0220561677624715],[-34.906634940548123,-8.0220937379259087],[-34.906646102086249,-8.0221135586011787],[-34.906713810329613,-8.0222386612482559],[-34.906723815322522,-8.0222578734119505],[-34.906742374811877,-8.0222982030019363],[-34.906758248441115,-8.0223396561304998],[-34.90677136735934,-8.0223820559193104],[-34.906781677197984,-8.0224252190943837],[-34.906789132658211,-8.0224689623397474],[-34.90679370112219,-8.0225130986643514],[-34.906795364467001,-8.0225574373937469]]]},"properties":{"ID":0,"ZEC":"ZEC - ALTO JOSÉ DO PINHO","OBJECTID":10,"DB2GSE.ST_Area(SHAPE)":22308.050724425,"DB2GSE.SdeLength(SHAPE)":530.25452245991698}},{"type":"Feature","id":11,"geometry":{"type":"Polygon","coordinates":[[[-34.9034587238041,-8.0211001344256783],[-34.903414226450856,-8.0210988890723662],[-34.903369906987649,-8.0210947444383329],[-34.903325954162028,-8.0210877195406081],[-34.903282555869168,-8.0210778451531315],[-34.903239899143536,-8.0210651619987772],[-34.903198165644881,-8.0210497252904194],[-34.903157534362414,-8.0210316011022655],[-34.903118179804956,-8.0210108672822216],[-34.903080269271598,-8.0209876116564143],[-34.903043966488013,-8.0209619338204305],[-34.903009425257537,-8.0209339451688244],[-34.902976795793265,-8.0209037652493329],[-34.902968765714974,-8.0208957009694615],[-34.902934870305124,-8.0208610860943104],[-34.902912320242194,-8.0208369069270073],[-34.902883921587048,-8.0208027394749966],[-34.902857825727466,-8.0207667939187175],[-34.902834144030955,-8.0207292234363194],[-34.902812977929997,-8.0206901902925569],[-34.902794418896903,-8.020649860414494],[-34.902778545739558,-8.020608407020303],[-34.90276542730571,-8.0205660069904567],[-34.902755117960567,-8.0205228436007925],[-34.902747662999325,-8.0204791001690285],[-34.902743095036065,-8.0204349636877588],[-34.902741432189799,-8.0203906248327286],[-34.90274268259418,-8.0203462725176848],[-34.902746839870993,-8.0203020957232845],[-34.902753887673533,-8.0202582852843971],[-34.902763795126447,-8.0202150284866178],[-34.902776518639776,-8.0201725090579483],[-34.902792005553721,-8.0201309107682093],[-34.902810188667218,-8.0200904111258566],[-34.902830990785681,-8.0200511840691497],[-34.902854321983085,-8.0200133963625539],[-34.902880082339856,-8.0199772112003718],[-34.902902250262876,-8.0199496566330453],[-34.902955630741026,-8.0198867379207055],[-34.90296154148281,-8.019879863169832],[-34.902991820328324,-8.0198473394116156],[-34.903024168482553,-8.0198168583338472],[-34.903058446878802,-8.0197885516690555],[-34.903094510047026,-8.019762539426349],[-34.903132201603981,-8.0197389353368198],[-34.903171362374152,-8.0197178377752305],[-34.903211823175887,-8.019699338834096],[-34.90325341113661,-8.0196835170619067],[-34.903295947891536,-8.0196704401837557],[-34.903339252304519,-8.0196601650887072],[-34.903383137730373,-8.0196527342261561],[-34.903427416574921,-8.0196481810093143],[-34.903471899358607,-8.0196465234908434],[-34.903516396555659,-8.0196477697790218],[-34.903560715852123,-8.0196519135298487],[-34.903604668515726,-8.0196589384381713],[-34.903648066649673,-8.0196688128257296],[-34.90369072322212,-8.0196814959697154],[-34.903732456575767,-8.019696932657439],[-34.903773087723778,-8.0197150568150164],[-34.903812442163684,-8.0197357914991283],[-34.903850352585749,-8.0197590461722079],[-34.903886655278619,-8.0197847239515898],[-34.90392119643618,-8.0198127125397107],[-34.903953825850685,-8.0198428932939461],[-34.903984405957409,-8.0198751357603193],[-34.904012804608158,-8.0199093040354423],[-34.904038901386507,-8.0199452495047296],[-34.904042453396954,-8.0199505490225924],[-34.904086014092762,-8.0200162065138514],[-34.904106143818211,-8.0200484773913345],[-34.904127309979287,-8.0200875104486151],[-34.904145869091117,-8.020127840242802],[-34.90416174234452,-8.0201692935570694],[-34.904174860890244,-8.020211693512282],[-34.904185170361316,-8.0202548568337502],[-34.904192625460482,-8.0202986002048622],[-34.90419719357142,-8.0203427366340456],[-34.904198856572748,-8.0203870754463829],[-34.904197606328296,-8.0204314277288198],[-34.904193449213672,-8.0204756045012271],[-34.904186401572936,-8.0205194149291064],[-34.904176494278801,-8.0205626717270313],[-34.904163770918672,-8.0206051911669913],[-34.904148284149876,-8.0206467894789846],[-34.904130101171077,-8.0206872891541963],[-34.904109299174742,-8.0207265162538306],[-34.904085968084921,-8.0207643040127152],[-34.904060207819484,-8.0208004892357092],[-34.904032128315379,-8.0208349177220253],[-34.904001849520228,-8.0208674424571118],[-34.903969501392332,-8.0208979236126599],[-34.903935223002115,-8.0209262303589171],[-34.903899160722325,-8.0209522417771666],[-34.903861468228072,-8.0209758468596952],[-34.903826337819154,-8.0209949233539959],[-34.903763292064362,-8.0210267985586921],[-34.90375926164824,-8.0210288197098354],[-34.903718800766569,-8.0210473187286677],[-34.903677212708651,-8.0210631405751585],[-34.903634675840806,-8.0210762175229355],[-34.903591371300976,-8.0210864926817944],[-34.903547485736382,-8.0210939236011853],[-34.903503206747651,-8.0210984777710586],[-34.9034587238041,-8.0211001344256783]]]},"properties":{"ID":0,"ZEC":"ZEC - BOMBA DO HEMETÉRIO","OBJECTID":11,"DB2GSE.ST_Area(SHAPE)":20039.482005335001,"DB2GSE.SdeLength(SHAPE)":502.12207828514261}},{"type":"Feature","id":12,"geometry":{"type":"Polygon","coordinates":[[[-34.899882730437582,-8.1320107276855751],[-34.899576592093858,-8.1313362786748531],[-34.899608739041668,-8.1313212591722923],[-34.900051941297676,-8.1311141804097833],[-34.90073236902488,-8.1308841982940727],[-34.90127428691379,-8.1307817203093311],[-34.900620190110871,-8.1290224227254253],[-34.901605211808644,-8.128648923253488],[-34.901634298041131,-8.1286378940647239],[-34.901727993175975,-8.1288958537986069],[-34.901822580011959,-8.1292479065310417],[-34.901929247666409,-8.1296449243541211],[-34.901929734328952,-8.129646736541444],[-34.901936070053559,-8.1296959080868323],[-34.902055442089193,-8.1306224187689118],[-34.902057907084853,-8.1306320391722267],[-34.902154749730727,-8.1310099347154505],[-34.902399105582766,-8.1316953688670726],[-34.902536157829502,-8.1320798094046847],[-34.902556453963861,-8.1321965633095488],[-34.902577960574796,-8.1323202800954864],[-34.902598227827383,-8.1324368650661469],[-34.902561853986413,-8.1328964735312468],[-34.901117291942782,-8.1331572472132727],[-34.900529465139705,-8.133263360566092],[-34.900485678881786,-8.1332712644472647],[-34.900457233180191,-8.13327639972605],[-34.900107409188315,-8.1325057134709589],[-34.900315544284204,-8.1324449304789486],[-34.901429849245545,-8.1320916048856855],[-34.9013893685919,-8.1315427934317146],[-34.899964052140035,-8.131982870971509],[-34.899965073213956,-8.1319850766457034],[-34.899882730437582,-8.1320107276855751]]]},"properties":{"ID":0,"ZEC":"ZEC - PRAÇA DE BOA VIAGEM","OBJECTID":12,"DB2GSE.ST_Area(SHAPE)":81274.165550865,"DB2GSE.SdeLength(SHAPE)":1810.1374648671604}},{"type":"Feature","id":13,"geometry":{"type":"Polygon","coordinates":[[[-34.905662324917238,-8.120010962837819],[-34.905661077075351,-8.1200553149555574],[-34.905656920734991,-8.1200994917447264],[-34.90564987495415,-8.1201433023581906],[-34.905639967880006,-8.1201865595223683],[-34.905627243095125,-8.120229078603586],[-34.905611755081424,-8.1202706776291969],[-34.905593570131678,-8.120311178187503],[-34.905572766358041,-8.1203504072357457],[-34.905549431873439,-8.1203881962046207],[-34.905523667521635,-8.1204243827936153],[-34.905495583257036,-8.1204588127960751],[-34.905465299047599,-8.1204913391909628],[-34.905432944874867,-8.1205218221428854],[-34.905398659835214,-8.1205501308143333],[-34.905362589422616,-8.1205761442826052],[-34.905324890064591,-8.1205997515185029],[-34.905285720953053,-8.1206208505206003],[-34.905245251323365,-8.120639352801426],[-34.905203654069716,-8.1206551761848438],[-34.905161107610652,-8.1206682556462173],[-34.905130332087225,-8.1206758646281969],[-34.904982775201411,-8.1207087294443667],[-34.904970236236039,-8.1207113990966722],[-34.904926340395413,-8.1207188326278139],[-34.9048820508552,-8.1207233885445689],[-34.904837556235357,-8.1207250487862535],[-34.904793048831664,-8.1207238052198285],[-34.90474871828647,-8.1207196641897994],[-34.904704754289035,-8.1207126419852997],[-34.904661344782376,-8.1207027693687692],[-34.904618676861936,-8.1206900897636842],[-34.904576932222454,-8.1206746556595153],[-34.904536289905188,-8.1206565340233734],[-34.904496923554902,-8.1206358017923819],[-34.904459003247062,-8.1206125485774372],[-34.904422689124615,-8.120586873980761],[-34.904388138655563,-8.1205588875618648],[-34.904355498468163,-8.1205287088757814],[-34.904324908886885,-8.120496467451904],[-34.904296501206574,-8.1204623019025401],[-34.904270396776631,-8.1204263581191736],[-34.904246707001128,-8.1203887892723454],[-34.904225534250195,-8.1203497567115246],[-34.90420696822693,-8.1203094290780182],[-34.904191088663495,-8.1202679768678596],[-34.904177963532277,-8.1202255778647388],[-34.904170328000227,-8.1201949096623984],[-34.904144594425773,-8.1200801755636896],[-34.904141916372446,-8.1200676812281536],[-34.904134456927451,-8.1200239375775869],[-34.904129885170185,-8.1199798025133969],[-34.904128219222898,-8.119935463997134],[-34.904129467232671,-8.1198911109409639],[-34.904133622844007,-8.1198469350371294],[-34.904140669705008,-8.1198031244082589],[-34.904150576041218,-8.1197598672491278],[-34.904163300984813,-8.1197173472766142],[-34.904178789152631,-8.1196757482754993],[-34.904196974245238,-8.1196352477530827],[-34.904217779059714,-8.1195960196513521],[-34.90424111365823,-8.1195582307392709],[-34.904266878106711,-8.1195220442163016],[-34.904294962445022,-8.1194876133840008],[-34.904325246716837,-8.1194550879744263],[-34.904357600019793,-8.1194246051138119],[-34.904391885982875,-8.11939629652964],[-34.90442795548315,-8.1193702831602206],[-34.904465655722142,-8.1193466760163027],[-34.904504823875349,-8.1193255762108283],[-34.904545293442723,-8.1193070749292211],[-34.904586890607021,-8.1192912507342783],[-34.904629436963972,-8.1192781713613886],[-34.904660212409532,-8.1192705633433242],[-34.904807769753496,-8.11923769784919],[-34.904820307774671,-8.1192350291203415],[-34.904864204372174,-8.1192275956327364],[-34.904908493752906,-8.1192230397555125],[-34.904952987299353,-8.1192213795485184],[-34.904997495439993,-8.119222623131467],[-34.905041825813491,-8.1192267641720584],[-34.905085789640502,-8.1192337863766504],[-34.90512919806924,-8.1192436580828566],[-34.905171866741291,-8.1192563385666539],[-34.905213611230032,-8.1192717726394008],[-34.905254253408074,-8.1192898942342158],[-34.905293618725672,-8.1193106264187644],[-34.905331539830918,-8.1193338795701813],[-34.905367852953816,-8.1193595541041219],[-34.90540240425662,-8.1193875404451052],[-34.905435043483372,-8.1194177190562247],[-34.905465633027809,-8.1194499594925649],[-34.905494040701129,-8.1194841258594828],[-34.905520145141253,-8.1195200695547562],[-34.905543834948176,-8.1195576383132924],[-34.905565008654143,-8.1195966698787458],[-34.905583574753521,-8.1196369983318473],[-34.905599454407351,-8.1196784504615103],[-34.905612579641719,-8.1197208484853753],[-34.905620214352453,-8.1197515166422889],[-34.905645948281759,-8.1198662505572514],[-34.905648627288009,-8.119878745772338],[-34.905656085972758,-8.1199224884583163],[-34.905660658802191,-8.1199666243668371],[-34.905662324917238,-8.120010962837819]]]},"properties":{"ID":0,"ZEC":"ZEC - BOA VIAGEM","OBJECTID":13,"DB2GSE.ST_Area(SHAPE)":22326.424023330001,"DB2GSE.SdeLength(SHAPE)":530.49732830554763}},{"type":"Feature","id":14,"geometry":{"type":"Polygon","coordinates":[[[-34.938477833819121,-8.110801213291511],[-34.938476589394099,-8.1108455646810249],[-34.938472437481614,-8.1108897400559972],[-34.938465394411544,-8.1109335503924118],[-34.938455491037189,-8.1109768084050895],[-34.93844277091663,-8.1110193276524249],[-34.938427286705711,-8.1110609270737424],[-34.938409105588029,-8.1111014282513132],[-34.938388304752216,-8.11114065814402],[-34.938364974104694,-8.1111784472664041],[-34.938339213578558,-8.1112146360297679],[-34.938311133098914,-8.1112490675099327],[-34.938280852621887,-8.1112815955835984],[-34.938248502108628,-8.1113120795040885],[-34.93821422065281,-8.1113403911379898],[-34.938178154627288,-8.1113664068374636],[-34.938140457727449,-8.1113900164805521],[-34.938101292759519,-8.111411118038454],[-34.938060826219214,-8.1114296221214861],[-34.938019231907418,-8.1114454492498158],[-34.937976687310162,-8.1114585316787835],[-34.937945913649123,-8.1114661428385446],[-34.937798365418182,-8.1114990181635065],[-34.937785827178928,-8.1115016887110976],[-34.937741933730827,-8.1115091245078776],[-34.937697646389893,-8.1115136845813254],[-34.937653154661007,-8.1115153481404612],[-34.937608648114114,-8.1115141079549158],[-34.937564319101313,-8.1115099694377744],[-34.937520356411014,-8.1115029515800039],[-34.937476947967696,-8.1114930824172049],[-34.937434280862306,-8.111480405357943],[-34.937392536794661,-8.1114649746850951],[-34.937351894799271,-8.1114468564469941],[-34.93731252943099,-8.1114261284659932],[-34.937274608034826,-8.111402878543382],[-34.937238294387598,-8.1113772071542076],[-34.937203742326062,-8.1113492229573492],[-34.937171102123067,-8.1113190481894115],[-34.93714051137259,-8.1112868096676305],[-34.937112102285965,-8.1112526468916215],[-34.937085995307164,-8.1112167048412651],[-34.937062304581694,-8.1111791393750394],[-34.937041128845998,-8.1111401091368673],[-34.937022560533741,-8.111099782745228],[-34.937006678488181,-8.1110583324994092],[-34.936993550692357,-8.1110159361746028],[-34.936985913152242,-8.110985269115659],[-34.936960172854356,-8.1108705390768101],[-34.936957493053377,-8.1108580442747726],[-34.936950030605317,-8.1108143029005451],[-34.936945455690442,-8.1107701689983482],[-34.936943786448815,-8.1107258314289119],[-34.936945031041532,-8.1106814791002932],[-34.936949183127901,-8.1106373037016652],[-34.936956226370967,-8.1105934933534254],[-34.936966129914744,-8.1105502353408916],[-34.936978850198493,-8.1105077161056727],[-34.936994334563863,-8.1104661167082739],[-34.937012515824783,-8.1104256155660632],[-34.937033316794782,-8.1103863866236114],[-34.93705664755241,-8.1103485966535942],[-34.937082408175804,-8.1103124079559397],[-34.937110488734064,-8.110277976549721],[-34.937140769269881,-8.1102454485571354],[-34.937173119821267,-8.1102149647236033],[-34.937207401298366,-8.1101866540852523],[-34.93724346731517,-8.1101606375764153],[-34.937281164189478,-8.110137028029726],[-34.937320329111259,-8.1101159265684899],[-34.937360795585661,-8.1100974225809246],[-34.937402389812995,-8.1100815955454788],[-34.937444934308736,-8.1100685132054746],[-34.937475707888026,-8.1100609021059125],[-34.937623255675753,-8.1100280270131613],[-34.937635793873866,-8.1100253564809037],[-34.937679687171986,-8.1100179207325436],[-34.937723974353723,-8.1100133606993001],[-34.937768465916626,-8.110011697171279],[-34.937812972293351,-8.1100129373782934],[-34.937857301134471,-8.1100170759066756],[-34.937901263654283,-8.1100240937652188],[-34.937944671930985,-8.1100339629181502],[-34.937987338876255,-8.1100466399569324],[-34.938029082792845,-8.1100620705989428],[-34.938069724648606,-8.1100801887962213],[-34.938109089890922,-8.1101009167270082],[-34.938147011176746,-8.1101241665907473],[-34.938183325638192,-8.1101498379089243],[-34.938217876718461,-8.1101778220366665],[-34.938250517774499,-8.1102079967212415],[-34.938281107584515,-8.1102402351638911],[-34.938309516659139,-8.1102743978533987],[-34.938335623647397,-8.1103103398155678],[-34.938359314403549,-8.1103479051933167],[-34.938380490190632,-8.1103869353441365],[-34.93839905857407,-8.1104272616509778],[-34.938414940709379,-8.1104687118159013],[-34.938428068612033,-8.1105111080649994],[-34.938435706237662,-8.1105417750738944],[-34.938461446889143,-8.1106565049275066],[-34.938464126731446,-8.1106689997091106],[-34.938471589330348,-8.1107127410179203],[-34.938476164405628,-8.1107568748640002],[-34.938477833819121,-8.110801213291511]]]},"properties":{"ID":0,"ZEC":"ZEC - IBURA","OBJECTID":14,"DB2GSE.ST_Area(SHAPE)":22326.427582355002,"DB2GSE.SdeLength(SHAPE)":530.49736725098364}}]}