{"type":"FeatureCollection","features":[{"type":"Feature","id":2,"geometry":{"type":"Polygon","coordinates":[[[-34.909513197913469,-8.0358527791112113],[-34.90905587435212,-8.0352055834721501],[-34.908650902019282,-8.0346886254117855],[-34.908555740336702,-8.0345671499557589],[-34.908008969291068,-8.0349541449283723],[-34.907120456160065,-8.0355819498209424],[-34.906847208478624,-8.0358053490728381],[-34.906767275131664,-8.0357479643023932],[-34.906752609004933,-8.0357374348326349],[-34.906330606112142,-8.0353122210716919],[-34.906226383047979,-8.035213583993162],[-34.906123980335778,-8.0351166688250402],[-34.90591558725,-8.0349108824141418],[-34.905891471325234,-8.0348870689145198],[-34.905839686369106,-8.0348104277946231],[-34.90583892891614,-8.0346481046638853],[-34.90583363578714,-8.0345865602375373],[-34.90582295754794,-8.0344624176640043],[-34.905811748956964,-8.0343321081737678],[-34.905776615724875,-8.0341528701186071],[-34.905844552987901,-8.0340158507974522],[-34.905924791162818,-8.033948555986326],[-34.905998235980412,-8.0338869792565895],[-34.906137886630837,-8.033823334462852],[-34.906263386710954,-8.0337661379699092],[-34.906545646408595,-8.0336366882226606],[-34.906801960792222,-8.0334560816357357],[-34.906955479731913,-8.0333259946385631],[-34.906964177353565,-8.0333186241070358],[-34.907184679715222,-8.0328135493718396],[-34.907244362337089,-8.032744920406639],[-34.907672645439611,-8.0326831277789168],[-34.90786118277741,-8.0326737069214449],[-34.907920663953867,-8.0325623642816613],[-34.908591162507072,-8.0310458655991734],[-34.90879844752147,-8.0312430881150121],[-34.908814780815682,-8.0312274487722881],[-34.909181218611465,-8.0308765841095724],[-34.909190805648031,-8.030867404902537],[-34.9093678174847,-8.0307081769006015],[-34.909692726443616,-8.0305256650341796],[-34.909754573031627,-8.0304909238539324],[-34.909963618042276,-8.030363155879213],[-34.910217146395723,-8.0302162148132563],[-34.910303764227528,-8.0301685695921172],[-34.910635357542454,-8.0299861725869945],[-34.910891597538132,-8.0298351955165472],[-34.910921516763388,-8.029887780838358],[-34.910966179314244,-8.0299377617555212],[-34.911015258627387,-8.0299926863800088],[-34.911047167885172,-8.0300283943518256],[-34.911109384206185,-8.0300898323041938],[-34.911231341079741,-8.0302102633199297],[-34.911355677879492,-8.0302715084089673],[-34.911390031737369,-8.030288430219219],[-34.91143295057951,-8.0303183298879617],[-34.911532153325389,-8.0303874386567529],[-34.911709506017552,-8.0305344031564019],[-34.911766382120135,-8.0305815336135922],[-34.911797045425253,-8.0306207722486995],[-34.911810386944595,-8.0306378459219161],[-34.911879553697418,-8.0307263562320319],[-34.912013576040437,-8.0308752360589484],[-34.912194031131165,-8.0311526381453788],[-34.912504421122257,-8.0315955481774868],[-34.912577779854146,-8.0316994223961213],[-34.912697356076556,-8.0318687385656578],[-34.912953292563635,-8.032249609285369],[-34.913062208504684,-8.0323989100152176],[-34.913121342794454,-8.0324799719417115],[-34.913474560385083,-8.0323512041794221],[-34.913545038632321,-8.0324656980392675],[-34.913672172693779,-8.0323789905291036],[-34.914099348468604,-8.0322293748114717],[-34.914362344052464,-8.0321625389518196],[-34.914686723879022,-8.032025702856842],[-34.914695106005318,-8.0320584705571374],[-34.914863208567411,-8.0319346653581292],[-34.914908790480965,-8.0320041655931789],[-34.915405808404039,-8.0318337202059222],[-34.915355372866003,-8.0316957108945886],[-34.915289114498293,-8.0315144045391094],[-34.91735206672098,-8.0308785107976739],[-34.918568931074176,-8.0304831895209539],[-34.919449039717833,-8.0301964054697184],[-34.921408294903905,-8.0295684366969251],[-34.921953413216933,-8.0293849358938445],[-34.922417026520151,-8.0292381342303205],[-34.9224910569149,-8.0292183726484794],[-34.922508457649982,-8.0292125008161204],[-34.923543477367218,-8.0288632343155442],[-34.923995051341478,-8.02872358972804],[-34.923983081638092,-8.0286862492303754],[-34.923933660000706,-8.0285320658564796],[-34.923909471150111,-8.0284566040046847],[-34.923863160121584,-8.0283880631184399],[-34.923773246475371,-8.0282467439781389],[-34.923710291467117,-8.0281573247531135],[-34.923742403908747,-8.0281329493895282],[-34.924006032897346,-8.027932841363997],[-34.924199927692165,-8.0277791800072738],[-34.924326079906926,-8.027700986363234],[-34.924452329950789,-8.0276470527001695],[-34.924518211626498,-8.0276283279404517],[-34.924564678155122,-8.0276131547276535],[-34.924573992377084,-8.0276122125252556],[-34.924645390217094,-8.0276049878138522],[-34.925121476040125,-8.0275722277882391],[-34.925277282028482,-8.0275639824320297],[-34.925498583248931,-8.0275491563541213],[-34.925645072214571,-8.0275393416190219],[-34.925665365510014,-8.0275348682841692],[-34.925698062845193,-8.0275338039666533],[-34.925721382591149,-8.0275292775906042],[-34.925800090203666,-8.0275101662501829],[-34.925861716526882,-8.0274952022104333],[-34.926127507262876,-8.0274306630696444],[-34.926309785026234,-8.0273910165738585],[-34.926416873616169,-8.0274026458972507],[-34.926539521923949,-8.0274342751740555],[-34.926707535460864,-8.0275180768105123],[-34.926750784595747,-8.0275344484143076],[-34.926805954871206,-8.0275630015367785],[-34.926885155933981,-8.0276466711005767],[-34.926939726504706,-8.0276611372430562],[-34.927019027993424,-8.0277170372145896],[-34.927166207242635,-8.0278007562806124],[-34.926963475931977,-8.0279086216473345],[-34.926845212828304,-8.0279710746377102],[-34.926788997564159,-8.0280219824000927],[-34.926714267290045,-8.0280536200451742],[-34.926517409177066,-8.0282039431169299],[-34.926372332962288,-8.0283413071752161],[-34.92621934427941,-8.0286154129194092],[-34.926024348954911,-8.0290691304907007],[-34.925854252435563,-8.0293518614780481],[-34.925700820359701,-8.0295319967560861],[-34.924549688558763,-8.0308103570313438],[-34.924464387551239,-8.0308961998183843],[-34.923451281190168,-8.0323618580115923],[-34.923399664442918,-8.0324353066787477],[-34.923396535604816,-8.0324348132309176],[-34.922941868606493,-8.0330867353605981],[-34.922923346927561,-8.0331130921870582],[-34.922579358563901,-8.0336038837774293],[-34.922565778971546,-8.0336218974125],[-34.922514674133829,-8.0336904707536831],[-34.922351981678048,-8.033725416719534],[-34.922163687879703,-8.033786101610719],[-34.921958343676266,-8.0338639420482014],[-34.921714487174057,-8.0340021801560226],[-34.921684785893959,-8.0340190170015582],[-34.921341283319336,-8.0342763173248883],[-34.921034824608341,-8.0345340627429689],[-34.920819729319682,-8.0348422192780085],[-34.920579765371841,-8.0351753952571681],[-34.920356379390107,-8.0354918915344271],[-34.920215615188084,-8.035666877661642],[-34.919711536409324,-8.0347394776876246],[-34.919249531071216,-8.0339031950198212],[-34.918812630257563,-8.0330916984471816],[-34.918638123427641,-8.0331755265540217],[-34.918388933234226,-8.0333178126333369],[-34.918397612260854,-8.0333924848509852],[-34.918893474866188,-8.0343448301432066],[-34.919254758092478,-8.0350155559569956],[-34.919422809927781,-8.0353302232998995],[-34.919649785656617,-8.0357774384330938],[-34.91980551307806,-8.036098399247857],[-34.919922058267133,-8.0363280274235986],[-34.920006298659885,-8.0362526844296074],[-34.920032997403851,-8.036376176704632],[-34.919999384286953,-8.0365215831211998],[-34.919863095211269,-8.0367016363962804],[-34.919564777306313,-8.037061845932346],[-34.919215249967579,-8.037465025951585],[-34.91897632984071,-8.0376968187287172],[-34.918771222854787,-8.037825915616196],[-34.918514470745883,-8.0379125591523852],[-34.918300388922461,-8.0379562719110851],[-34.917597419584446,-8.0379339315949743],[-34.916534201021392,-8.0378619926733208],[-34.916096762621031,-8.0378042268180359],[-34.915796613305368,-8.0377714588496438],[-34.915212785178078,-8.0375691246254135],[-34.915023864933715,-8.0374931242097958],[-34.914843260186821,-8.0373658081799153],[-34.913990719512753,-8.0365239682573826],[-34.913895959813217,-8.0364218902743669],[-34.913852866556638,-8.0363708322149812],[-34.913561994654131,-8.0364917980135111],[-34.913493579569817,-8.0365262829796915],[-34.913322270322581,-8.0365527197800244],[-34.911917674639838,-8.0367984619677646],[-34.911314801532392,-8.0369049606371163],[-34.911273649399575,-8.0369123926806569],[-34.911224196798678,-8.036925997413686],[-34.910772439654231,-8.0370502826009709],[-34.910650564018347,-8.0370508492001544],[-34.910629090575725,-8.0370626440409634],[-34.910633848158497,-8.0370134415667085],[-34.910590104932609,-8.0370182375792254],[-34.910495744556862,-8.0370015839219136],[-34.909513197913469,-8.0358527791112113]],[[-34.926529990897869,-8.0276879057885733],[-34.926452344771313,-8.0276574137823129],[-34.926447433188827,-8.0274375929925057],[-34.926276837747395,-8.0274191071631265],[-34.92610578689456,-8.0274654761183761],[-34.925885942973849,-8.0275250728685901],[-34.926056019030227,-8.0282223655259255],[-34.926160943758511,-8.0283183094680979],[-34.926249398886043,-8.0281751895246014],[-34.926268283362113,-8.028070964287382],[-34.926529990897869,-8.0276879057885733]]]},"properties":{"OBJECTID":2,"ZONA_NOME":"SRU","ZONA_TIPO":"SRU-2","NMCONSIDERAC":"- Imóveis localizados na ARU prevalecem os parâmetros definidos na lei 16.719/2001.","DB2GSE.ST_Area(SHAPE)":1181668.1985869401,"DB2GSE.SdeLength(SHAPE)":7259.8749229189907}},{"type":"Feature","id":3,"geometry":{"type":"MultiPolygon","coordinates":[[[[-34.926064823973476,-8.0359389793190061],[-34.926018465209872,-8.0358248556188965],[-34.926095379871875,-8.0353743215298028],[-34.926166462575686,-8.0348844240080677],[-34.926175896273712,-8.034490477489685],[-34.926415151044331,-8.0337465695519406],[-34.926718624932725,-8.0330308557912655],[-34.926831811792809,-8.0325484022037852],[-34.927375897314775,-8.0316686675511644],[-34.927405683257312,-8.0316410382377974],[-34.927461565912232,-8.0315618610338468],[-34.927608366349148,-8.031785647194523],[-34.927686593595105,-8.0319048974460063],[-34.927709581486887,-8.0319407251237482],[-34.927675287452466,-8.0319881120977268],[-34.927417689968287,-8.0324130772093714],[-34.927141935287501,-8.0329768778303432],[-34.927073233450265,-8.033130078906396],[-34.926887391539303,-8.0335444926988409],[-34.92682173953586,-8.0336908909001661],[-34.92659622050811,-8.0345357107139694],[-34.926479259502948,-8.035263771584118],[-34.926418347726283,-8.0358567194305941],[-34.92641450947643,-8.03589408501165],[-34.926446098757729,-8.0367736905771867],[-34.926438556724293,-8.0370012984286632],[-34.926425091680564,-8.0374076656462865],[-34.926281978931954,-8.0381072429838696],[-34.926055197295376,-8.0384829165227529],[-34.925945989119683,-8.0386638271132274],[-34.925679123764915,-8.0390161847179691],[-34.925227216676014,-8.0393699246480423],[-34.924365514256536,-8.0398475750112919],[-34.92325838616523,-8.0401900298242683],[-34.922626419779171,-8.0405302586010734],[-34.922313516750719,-8.0406788687661273],[-34.921951217457959,-8.0408509397046846],[-34.920470278760767,-8.041768310423727],[-34.920133744686659,-8.0419767747593998],[-34.919827081101964,-8.0422137607705242],[-34.919732024258124,-8.0422872207659957],[-34.919207875734855,-8.042591061264849],[-34.918640663970265,-8.0429238073504585],[-34.91742662353785,-8.0431828644256349],[-34.917338829131111,-8.0432015987776904],[-34.916625003469491,-8.0432809390063529],[-34.915860689328305,-8.0433321793102763],[-34.915460340140342,-8.0432310494083179],[-34.915017644970391,-8.043119221641625],[-34.91453429516762,-8.0429423057454468],[-34.914135873080021,-8.042717840950365],[-34.914107688054251,-8.0426978875915989],[-34.913699210128343,-8.042408686500492],[-34.913081638195926,-8.0418551923150101],[-34.912938267674846,-8.0417123576473557],[-34.91268021758691,-8.0414552739657594],[-34.912017019463626,-8.0407945570067856],[-34.911840305108512,-8.0403437331128096],[-34.911614846427497,-8.0397685563580357],[-34.911009881375627,-8.0391527067409356],[-34.910692723455682,-8.0388298421588988],[-34.910139198561687,-8.0383263774308862],[-34.910026324482537,-8.0382237127225196],[-34.909960421174084,-8.0381637701619351],[-34.90903981199564,-8.0375668092067656],[-34.9083738690573,-8.0373076607919298],[-34.907797797993105,-8.0372864154933055],[-34.907750930544658,-8.037301838583323],[-34.907318557951363,-8.0374441207403127],[-34.906815263490792,-8.0375899771884125],[-34.906360412379044,-8.0378312878629057],[-34.906024861278858,-8.0380901795712987],[-34.90600172061847,-8.0381080337874629],[-34.905739022696856,-8.0383843334292635],[-34.905547759702337,-8.0385939420909622],[-34.905508784589969,-8.0386366547938692],[-34.90531384044445,-8.0388608133933541],[-34.90524043743406,-8.0391309200888017],[-34.905129443230926,-8.0393453874257279],[-34.905056083493022,-8.0396247959064215],[-34.904986387523358,-8.0398523679181633],[-34.904973347833,-8.0398949449853827],[-34.904871947201507,-8.0401651815146966],[-34.904789297311737,-8.0404539359690759],[-34.904777046787679,-8.0406722154110852],[-34.904772065067426,-8.0407609910747269],[-34.904766019729188,-8.0411052040288755],[-34.904767391191562,-8.041399034019868],[-34.904767925810695,-8.041513570895594],[-34.904753056674785,-8.0417930544649447],[-34.904792073091627,-8.0420669152612874],[-34.904803532279182,-8.0422119436684696],[-34.904773293477845,-8.0426634472114902],[-34.904623183190033,-8.0433838274669291],[-34.904302159324359,-8.0440192005047617],[-34.904081060894789,-8.0443437997570815],[-34.904016127589699,-8.0444391294895929],[-34.903742262952932,-8.0448948818365107],[-34.903540952581345,-8.045469899067804],[-34.903399470909832,-8.0460087590892648],[-34.903402708395298,-8.0467024284206854],[-34.90343879696767,-8.0471538633270665],[-34.903440939346083,-8.0471806554688587],[-34.903545803699622,-8.0477682516916094],[-34.903551838454575,-8.0478020648713304],[-34.903563370289454,-8.0478462267659285],[-34.903698456136077,-8.0483635087423906],[-34.903775253221781,-8.0486329397767715],[-34.903835932568548,-8.0488458190963499],[-34.90384485190193,-8.0488771137009945],[-34.904063859961433,-8.0495219419056436],[-34.904258031116107,-8.049987483227147],[-34.904343871775886,-8.0503817674726452],[-34.904347233675765,-8.0504392977322681],[-34.904379155171227,-8.0509855622270283],[-34.904383000153793,-8.0510513507273451],[-34.904362576831559,-8.0518168898862594],[-34.904293485133564,-8.052439134765935],[-34.904171602290155,-8.0530270295870121],[-34.904112729446496,-8.0532858515198225],[-34.903946536577223,-8.0540164814250943],[-34.903744757508392,-8.0549035532222586],[-34.903735938599183,-8.0549423263315756],[-34.903724936709295,-8.0549906909095803],[-34.903528205272039,-8.0555881873672419],[-34.903242502582494,-8.0560798766948984],[-34.902956520814726,-8.0565117666220338],[-34.902610260070425,-8.0568841364540305],[-34.902083945402438,-8.057245380640035],[-34.901689572874567,-8.0575940524026279],[-34.901414637978476,-8.0578225695131049],[-34.901152150027428,-8.0581467093621093],[-34.900914386873552,-8.0586262157769895],[-34.900666242593758,-8.059452612816516],[-34.900502543467617,-8.0603742989330947],[-34.900589669509777,-8.0610436608884743],[-34.900694861076026,-8.0616646633416575],[-34.900719983715007,-8.0618129781541867],[-34.899955356673679,-8.0619519749313149],[-34.899881658189521,-8.0615162584083944],[-34.899875135736828,-8.0614776938230062],[-34.899840764687596,-8.061438033331795],[-34.899189918630434,-8.0606870368827828],[-34.898314834794753,-8.0596763266402967],[-34.898240237412715,-8.0595992111789378],[-34.898144394121218,-8.0595001338073651],[-34.898147844233485,-8.0594718158322554],[-34.898212377930172,-8.0589421923309459],[-34.897916986145539,-8.058895637029643],[-34.897924040395132,-8.058551506987925],[-34.897930162822774,-8.0581602148692966],[-34.897937183638604,-8.0577115669126904],[-34.897917371136039,-8.056958721356013],[-34.897912309532842,-8.0567663915058514],[-34.89791440595409,-8.0564841546238082],[-34.89790498373101,-8.0559265443042936],[-34.897956365091574,-8.0559201497521613],[-34.898738316196926,-8.0559105221923275],[-34.899319710285248,-8.0552055698235812],[-34.900654451754548,-8.0553039725344746],[-34.900833713054766,-8.0551686610220177],[-34.901565015504431,-8.054463010799596],[-34.901669616991342,-8.0543878160737812],[-34.901758095995596,-8.0540736135705959],[-34.901952903628654,-8.0540577713834871],[-34.902056388026779,-8.0537435173784218],[-34.902186052089199,-8.05323291879726],[-34.902194140259716,-8.053232858688073],[-34.903607219847359,-8.0536189401436875],[-34.903742621906702,-8.05294953394991],[-34.903749053263816,-8.0528810298267341],[-34.903764975971185,-8.0527796404019618],[-34.903822372846626,-8.0524141423382165],[-34.90393002447798,-8.0519344584452295],[-34.903966714664286,-8.0518051001678739],[-34.903957008655468,-8.0515807812251587],[-34.902748122879423,-8.051349080894159],[-34.90254914334448,-8.0514514304420484],[-34.902144912925785,-8.0516593551862066],[-34.9021132774036,-8.0516756277729904],[-34.902063648966262,-8.0514104433817479],[-34.901967694159204,-8.0508003743887322],[-34.901772731342021,-8.0507863220239901],[-34.901771267392739,-8.0504725536963715],[-34.901738921812203,-8.0499646779155523],[-34.901433384585147,-8.0487408517892565],[-34.900873483981727,-8.0472704836574689],[-34.900762635783714,-8.047039153134774],[-34.90100536201119,-8.0468523590213987],[-34.901405305442012,-8.04657916321481],[-34.901733622303773,-8.0463062799550862],[-34.901918503919198,-8.0460054923798303],[-34.902031527092582,-8.0456621991690707],[-34.902053950135382,-8.0453465960928252],[-34.90207274454216,-8.0450820645450687],[-34.902138329525194,-8.0445463082103945],[-34.902192707346956,-8.0441020876863156],[-34.902209881478015,-8.0439617957125087],[-34.902218165998626,-8.0439064254608379],[-34.90214370636518,-8.0438969196013641],[-34.902148816179746,-8.043874814894286],[-34.902181662278288,-8.0437327172231399],[-34.902203009325142,-8.0436403714259317],[-34.902378409087461,-8.0437140137287226],[-34.90276461612067,-8.0438755458034841],[-34.903556633560171,-8.0442068081030556],[-34.903986965136269,-8.0436812884647022],[-34.904094657170951,-8.0433848109786794],[-34.904253717231612,-8.0430655107432294],[-34.904318010621253,-8.0428885093838893],[-34.904380483318221,-8.0427165204968958],[-34.904443985862926,-8.0425416970961017],[-34.904520198990639,-8.0423583309642979],[-34.90451944693676,-8.0421972065389866],[-34.904558293652137,-8.0420736569940559],[-34.904533176310608,-8.0419875540904791],[-34.904546408161771,-8.0419622303041454],[-34.904508957855725,-8.0419006695144208],[-34.904495158677022,-8.0415982334017642],[-34.904518348827274,-8.0412585851261031],[-34.904516879519363,-8.0409437449520897],[-34.904521805149344,-8.0406720887815961],[-34.904515266232828,-8.0405980386734708],[-34.904490059415828,-8.0405055534174323],[-34.904489828954297,-8.0404561660298519],[-34.904508179063853,-8.0404066934113239],[-34.904513480173961,-8.0402152916221112],[-34.904536681811685,-8.040090726135027],[-34.904585278050661,-8.0399119044882674],[-34.904719655752885,-8.0395787238297984],[-34.904914900520623,-8.0390481890721048],[-34.905049337102923,-8.0387273251978009],[-34.905241095207451,-8.0384764083474867],[-34.905424608621217,-8.0382108475925076],[-34.905688119522658,-8.0379114435657044],[-34.905896985758844,-8.0376518188041821],[-34.906130622960241,-8.0374043961504977],[-34.906339890320517,-8.0372309887196867],[-34.906450875108014,-8.0371812057398664],[-34.90621505312852,-8.0369605946027978],[-34.906485014068771,-8.036552882768472],[-34.905977564156196,-8.0363827993943175],[-34.905924800857555,-8.0356686608103196],[-34.905545971587472,-8.035732247349026],[-34.904772402357771,-8.0352037393252775],[-34.904211924805907,-8.0358517456053438],[-34.903661354162132,-8.0365046319076754],[-34.903615347466499,-8.0365625021070723],[-34.903268220517447,-8.036999131473511],[-34.903170004952642,-8.0371375366826445],[-34.903527792692607,-8.0374342222206661],[-34.903403296942415,-8.0376906481995078],[-34.903357336478379,-8.0377853138804465],[-34.904362949070723,-8.0382807100837432],[-34.9042381847391,-8.0385877708623585],[-34.903499513149782,-8.0383762712168387],[-34.903871521500051,-8.0386029929403318],[-34.903763377683013,-8.0387937873066999],[-34.903327637480309,-8.0395625475370185],[-34.90317762186428,-8.0394780653968354],[-34.902603354705768,-8.0392228576570126],[-34.902624314934108,-8.0391859052306742],[-34.901789677137053,-8.038839638470396],[-34.901844583277658,-8.0387215847077549],[-34.903640175176058,-8.03648722718588],[-34.903703454917178,-8.0364107263553475],[-34.903736077908256,-8.0363707021183028],[-34.903839484409701,-8.0362438340691522],[-34.904306263366841,-8.0356684747641278],[-34.904642134612317,-8.0352814537780155],[-34.9049570761903,-8.034919321055316],[-34.905538286571854,-8.0340645098290508],[-34.905663573898806,-8.03387165515751],[-34.905924493686271,-8.033948757164735],[-34.905844255511269,-8.0340160519758186],[-34.905776318248122,-8.0341530712969629],[-34.905811451480105,-8.0343323093521857],[-34.905838631439117,-8.0346483058423601],[-34.905839388891998,-8.0348106289731209],[-34.905891173848097,-8.0348872700930674],[-34.906123682858656,-8.035116870003753],[-34.906330308635034,-8.035312422250577],[-34.906752311527832,-8.0357376360118291],[-34.906846911001551,-8.0358055502521069],[-34.907120158683313,-8.0355821510003462],[-34.908008671815288,-8.034954346108206],[-34.908555442861527,-8.0345673511358715],[-34.908650604544093,-8.0346888265919745],[-34.909055576876881,-8.0352057846526659],[-34.909512900438145,-8.0358529802921055],[-34.91049544708148,-8.0370017851035929],[-34.910589807457278,-8.0370184387609793],[-34.910633550683201,-8.0370136427484749],[-34.9106287931004,-8.0370628452227599],[-34.910200818560035,-8.037297924871682],[-34.910060214603803,-8.0375684660375093],[-34.910336425616421,-8.0377379035799503],[-34.910464831544942,-8.0378166711262296],[-34.910718515556482,-8.0378440575275025],[-34.910845000459197,-8.0378577120958266],[-34.910974744406658,-8.0378438578838338],[-34.911013460339476,-8.0378397234603352],[-34.910968530743318,-8.0374217000950061],[-34.911158397906235,-8.0373958459660333],[-34.911209667081188,-8.0376274871690612],[-34.911399779455614,-8.0375873511291296],[-34.911273351924777,-8.0369125938627946],[-34.911314504057614,-8.0369051618192842],[-34.911917377165523,-8.0367986631502877],[-34.91332197284936,-8.0365529209633575],[-34.913493282096717,-8.0365264841631241],[-34.913561697181102,-8.036491999196981],[-34.913852569083872,-8.0363710333986056],[-34.913895662340458,-8.0364220914580216],[-34.913990422039994,-8.0365241694411171],[-34.914842962714104,-8.0373660093643107],[-34.915023567461049,-8.037493325394319],[-34.915212487705482,-8.0375693258100647],[-34.915796315833035,-8.0377716600346787],[-34.916096465148883,-8.0378044280032679],[-34.916533903549499,-8.0378621938588406],[-34.917597122113207,-8.0379341327811247],[-34.918300091451677,-8.0379564730976885],[-34.918514173275284,-8.0379127603390952],[-34.918770925384408,-8.0378261168030534],[-34.918976032370551,-8.0376970199156759],[-34.919214952497704,-8.0374652271386591],[-34.919564479836929,-8.0370620471195586],[-34.919862797742297,-8.0367018375836139],[-34.919999086818187,-8.0365217843085901],[-34.920077895427809,-8.03648935720115],[-34.920351486427812,-8.0362224347722044],[-34.92039320738067,-8.0362388429549281],[-34.920744448786948,-8.0365443523668834],[-34.920603527440612,-8.0366861350016396],[-34.920704602112806,-8.0369264017788655],[-34.920396760153928,-8.0369942518023922],[-34.920430776766693,-8.0371435171777854],[-34.920547609896708,-8.0371927796382892],[-34.920863478783836,-8.0370862767540086],[-34.92112293166953,-8.037013135081601],[-34.921254992527686,-8.0374728624535745],[-34.922424063942707,-8.0377235956032216],[-34.922543360161299,-8.0382958317099487],[-34.923079322342218,-8.0386943155424202],[-34.923730360597247,-8.0390221407375293],[-34.923985873262616,-8.0388246258701841],[-34.924180318518779,-8.038625018280495],[-34.925107016628665,-8.0379600767444952],[-34.924972781994654,-8.0377531722651678],[-34.925926838824822,-8.0369600739876557],[-34.925625917471727,-8.0367290457373866],[-34.925882611888852,-8.0364123913289127],[-34.925956041349366,-8.0360882945156789],[-34.926037792523246,-8.0360504960517947],[-34.926064823973476,-8.0359389793190061]],[[-34.900051174786014,-8.0589083645139432],[-34.900031877602139,-8.0591891438530592],[-34.900382413412892,-8.0592354418646579],[-34.900398490013231,-8.0591989323380702],[-34.900460337940522,-8.0590584828474778],[-34.900501180792503,-8.0589572191837835],[-34.900103027066706,-8.0589139933952243],[-34.900051174786014,-8.0589083645139432]]],[[[-34.936873677767295,-8.0221199718589702],[-34.936986404074439,-8.0220848180847],[-34.937168476199858,-8.0220233708768482],[-34.937192017266213,-8.0220115001813355],[-34.937262677889528,-8.021980919878354],[-34.937353957938022,-8.0219309599749149],[-34.937380046215644,-8.02191668063824],[-34.937462700527675,-8.0218055902884853],[-34.937551396443062,-8.0217843471365118],[-34.937597487034061,-8.0217841302485358],[-34.937610161036631,-8.0217702729346314],[-34.937723050232727,-8.0217697416888267],[-34.937818571784383,-8.021769292149342],[-34.938035460842777,-8.021724992487405],[-34.938182963139084,-8.0216983301603424],[-34.938287127000279,-8.0216891844252363],[-34.938339229885131,-8.0216889391545525],[-34.938382607486147,-8.0216800786386511],[-34.938452077993432,-8.0216797515938794],[-34.938392943924661,-8.0208928098711638],[-34.938712698342741,-8.020823908322539],[-34.939345060618024,-8.0204903772395895],[-34.939515225318537,-8.0204702345432342],[-34.939827205456119,-8.0202982679485864],[-34.939886790211858,-8.0201997637370095],[-34.940359606209739,-8.0199361746740916],[-34.940722886289905,-8.0196440613938957],[-34.940867612067514,-8.0194037973638803],[-34.940968167006432,-8.0190766215586162],[-34.94095185864137,-8.018713696943145],[-34.940877894851987,-8.0184962429452131],[-34.940780275379346,-8.0180982733776247],[-34.940727571820162,-8.0177500392368959],[-34.940748040034386,-8.0174522807784641],[-34.94085341155408,-8.0171085707580723],[-34.940877318981009,-8.0170305893711387],[-34.940944142597672,-8.0168765955751216],[-34.941117437533599,-8.0171251999678876],[-34.941191383888572,-8.0172319446949452],[-34.941468717169997,-8.0176334934623483],[-34.941506636427945,-8.0176883959443295],[-34.941609725192031,-8.0178400530203717],[-34.941697407508592,-8.017969043048506],[-34.941776816621378,-8.0180902456639505],[-34.941818527917142,-8.0181539094707137],[-34.941940063089667,-8.0183686265744232],[-34.941994699815616,-8.0184651531773206],[-34.94216845559621,-8.0188212626648507],[-34.942285580114664,-8.0190613056808093],[-34.942372453335061,-8.0193323348244796],[-34.942461504910341,-8.019610162058747],[-34.942483386528707,-8.0197209064350563],[-34.942579225909597,-8.0202059499814737],[-34.94261020862394,-8.0204311811713271],[-34.942619173444903,-8.0204963535433897],[-34.942640412148265,-8.0207872304685299],[-34.942715800027223,-8.0223453293056988],[-34.942756508768873,-8.0230593820956795],[-34.942761743636368,-8.0231832467805173],[-34.942865269544249,-8.025003041913763],[-34.94295146349792,-8.0268426448938683],[-34.942953313729411,-8.0268821386705778],[-34.942953348008267,-8.0268828626536504],[-34.942958853225889,-8.0270003614940144],[-34.94297047531073,-8.0272483981232341],[-34.942979177708146,-8.0274559597022836],[-34.942918402761556,-8.0274414030665664],[-34.942641730127235,-8.0273751333765855],[-34.942615447366066,-8.0273654819558331],[-34.942223904507799,-8.0272216894144712],[-34.942080356628438,-8.0271031171274156],[-34.941702175328977,-8.0267907312119409],[-34.941485457595242,-8.0266117163471247],[-34.941331147712347,-8.0265298347903276],[-34.940925055516502,-8.0263143447827598],[-34.940898540539649,-8.0263002753144157],[-34.940504002852514,-8.0261094009737874],[-34.940040932913796,-8.0258853721670373],[-34.940007939461637,-8.0258497416771206],[-34.939775639873311,-8.0255988834710266],[-34.939558100520991,-8.0253639635711487],[-34.939137767416177,-8.0250788304839613],[-34.938635825376991,-8.0247383372777517],[-34.93835333073234,-8.0245467065250331],[-34.938307664794252,-8.0244987997019201],[-34.938111282600403,-8.0242927792984311],[-34.937870573811288,-8.0240402567790561],[-34.93785449898521,-8.0238158965650932],[-34.938332079944907,-8.0232301139950142],[-34.93864376114611,-8.0224805258383043],[-34.938596742632349,-8.0220617997833497],[-34.938365439811136,-8.0219780930556883],[-34.938365038230515,-8.0219779475854605],[-34.938311042085552,-8.0219584075251191],[-34.937741130542719,-8.0220658274005707],[-34.937051698220841,-8.0222935074765136],[-34.936309766875851,-8.0223766816656639],[-34.936076494278247,-8.0224028318371392],[-34.935274229021381,-8.0224571240437275],[-34.93465089454201,-8.0224993076369397],[-34.933931392751319,-8.0226251685339918],[-34.933622651980713,-8.0226822307764944],[-34.933395747539549,-8.0227714943070509],[-34.933186795013967,-8.0229148363567795],[-34.933091576293918,-8.0231030650047117],[-34.933082538697626,-8.0232749613193146],[-34.933079494590807,-8.0233328713812551],[-34.933144649313903,-8.0237010108645634],[-34.933160811959823,-8.0237923278217451],[-34.933174598329479,-8.023870224371727],[-34.933242454406823,-8.0244152685775596],[-34.933215505491084,-8.0245817921187559],[-34.933206824212824,-8.0246354380016331],[-34.93307919670216,-8.024865779808696],[-34.932593406919089,-8.0252024489492335],[-34.932317301798861,-8.0253860573813558],[-34.932051672212737,-8.0255748265870022],[-34.931844690619393,-8.02577346209541],[-34.931677457306037,-8.0260089239743841],[-34.931547942344373,-8.0262464418161823],[-34.931531038877779,-8.0262774417119047],[-34.931413820119012,-8.0266196061072144],[-34.931285020338777,-8.0270108799070758],[-34.931144394209575,-8.0274337092858428],[-34.931129117651913,-8.0274796419954164],[-34.931114979551332,-8.0275221529299632],[-34.931091777210554,-8.0275624489743933],[-34.93088417317508,-8.0279230011951253],[-34.930684606503156,-8.0282377956843547],[-34.930480900087723,-8.0285699023801271],[-34.930447649532042,-8.0286114958756656],[-34.930085020947281,-8.0284239626191631],[-34.929690352200709,-8.028219857784638],[-34.929480831987441,-8.027505920382481],[-34.928827175717359,-8.0276924374613756],[-34.928835155766102,-8.0274829432919539],[-34.928850612194502,-8.0270771493333175],[-34.928592006760859,-8.0269791853415473],[-34.928732661939648,-8.0269654678734668],[-34.929180112075379,-8.0265674751394638],[-34.929209418907455,-8.0263238423258603],[-34.929390577964959,-8.0259041618773779],[-34.929502878884819,-8.0257178767570707],[-34.928778566373403,-8.0254866985823359],[-34.928349483091573,-8.0248565877609455],[-34.928386958636679,-8.0245928655140961],[-34.928359245899358,-8.0244253069181184],[-34.928363167970041,-8.0243897608442847],[-34.928625209081581,-8.0244432856558863],[-34.928654147940797,-8.0244261637068028],[-34.928704315855249,-8.0243208996394806],[-34.929193133669365,-8.0240155225071295],[-34.92921501943507,-8.0240456624952916],[-34.929511824093922,-8.0238608388719648],[-34.929459633802409,-8.0236219610127044],[-34.929425442152308,-8.0236253397151298],[-34.929401060676248,-8.0235106747566967],[-34.92941863439188,-8.0234736842150554],[-34.929400071582521,-8.0234130962513834],[-34.929388569428816,-8.0232084180341126],[-34.929453531890466,-8.0232129050842431],[-34.929455741601906,-8.023161815439007],[-34.929538224285942,-8.0229201366336511],[-34.929677385044151,-8.0226284084172192],[-34.929957841187523,-8.0225647798268351],[-34.929972771936569,-8.0224401523459736],[-34.930165032210788,-8.0223984427961703],[-34.930220200595748,-8.0223252438702044],[-34.93042858334762,-8.0222779122370138],[-34.930509113733422,-8.0223188021761782],[-34.930594237815562,-8.0221046132881142],[-34.930636269542653,-8.0220953069183452],[-34.930750150846187,-8.021984323293303],[-34.930848276511142,-8.0220524078876601],[-34.93116790445449,-8.0216320355805379],[-34.931303445358843,-8.0217127686420202],[-34.931332862053992,-8.0217469785137148],[-34.931691770830035,-8.0219888243766686],[-34.93153584786797,-8.0221094320352631],[-34.931267019714937,-8.0223498858455056],[-34.933011703310761,-8.0244665472876662],[-34.932995261337474,-8.0242658652293866],[-34.932993272692777,-8.0242415816699104],[-34.932887511404132,-8.0239131554633758],[-34.932852448589038,-8.0238440729930502],[-34.932833730920876,-8.0235585170112014],[-34.932833240066842,-8.0234546495571504],[-34.932836281822205,-8.0234194584389087],[-34.932849707928575,-8.0232641426904951],[-34.932744969704032,-8.0231521092258689],[-34.932726089567304,-8.0228319304111437],[-34.932821365337368,-8.0227795477945865],[-34.932967928015941,-8.0225538075107892],[-34.932992962136133,-8.0225361639389288],[-34.933054479378129,-8.0224928103862041],[-34.93312395024315,-8.0224924842072234],[-34.93320202269458,-8.0224748058539248],[-34.933306105339838,-8.0224483490135121],[-34.933375535278252,-8.0224393675517369],[-34.933505710829714,-8.0224214453782157],[-34.933661692870089,-8.0223514657524859],[-34.93380915331241,-8.0223161496410764],[-34.934060657113442,-8.0222457212274012],[-34.934216761728393,-8.0222017080471133],[-34.93439047866844,-8.0222095482623494],[-34.935041825190524,-8.0222194716391506],[-34.935423831393479,-8.0222003643637976],[-34.935701834932281,-8.0222061615234281],[-34.935866622977073,-8.0221809709476357],[-34.935918725999471,-8.0221807259682141],[-34.935988360552756,-8.0222150220421611],[-34.93625755812662,-8.0222137561657583],[-34.93642234567465,-8.0221697013722331],[-34.936552602727517,-8.0221690887385737],[-34.936648165419619,-8.0221772955777855],[-34.93671500094608,-8.022138012835093],[-34.936767733411244,-8.0221166994151307],[-34.936873677767295,-8.0221199718589702]],[[-34.942360037430937,-8.0224747946070725],[-34.94166777564395,-8.0229266441579519],[-34.941582050822888,-8.0210872990173332],[-34.941612626300042,-8.0210880480552866],[-34.941751671936181,-8.0210783862514887],[-34.94193199858222,-8.0209703750101689],[-34.942148433036472,-8.0208349895974269],[-34.942510801606694,-8.0205946713699525],[-34.942446369606145,-8.0203960848407601],[-34.941704674812243,-8.0208244851784922],[-34.941339657404058,-8.0203561008136024],[-34.941249390373535,-8.0204469315479621],[-34.941276898779876,-8.0205100855315461],[-34.941222653119162,-8.0205465033294949],[-34.941223939898379,-8.0208177120305706],[-34.940353251555088,-8.0208218155405859],[-34.939845092858022,-8.0207699664396106],[-34.939762352074517,-8.0205353033181748],[-34.939590456364293,-8.0206265173658355],[-34.939792143258416,-8.0211157476180244],[-34.939910629497753,-8.0214031583202789],[-34.939048847810852,-8.0216501130247035],[-34.938922802649174,-8.0215880348836386],[-34.938850420756175,-8.0217227117237346],[-34.938850714406719,-8.021784670546305],[-34.938896455487182,-8.0218175001183116],[-34.93889672957102,-8.0218753284111433],[-34.939013152940873,-8.0219573925557324],[-34.938996890356002,-8.022023559959754],[-34.938997164461156,-8.0220813882485604],[-34.939030551109873,-8.0221307984540644],[-34.9390060593336,-8.022209395568785],[-34.938969076924842,-8.0222756605520349],[-34.938928067105721,-8.0223667282196285],[-34.938966205621192,-8.0225441670663411],[-34.939007899837655,-8.0225976696635133],[-34.938810397225254,-8.0228960071342854],[-34.938769035826631,-8.0229127243969085],[-34.93869112173553,-8.0230865782595924],[-34.938716631671412,-8.0232227694978437],[-34.938709244357739,-8.0234128146213379],[-34.938622983505283,-8.0235743168475633],[-34.938470379749226,-8.0237278693379999],[-34.938230281528121,-8.0237826979604918],[-34.93821898496202,-8.0240223289867654],[-34.938290117876896,-8.0241665675917186],[-34.938593943380731,-8.0244418910974993],[-34.938677196079873,-8.0245199807752758],[-34.939226204886914,-8.0249387222396091],[-34.939579779056501,-8.0252179400375141],[-34.939896077329401,-8.0255014646357949],[-34.940337010465733,-8.0258504911421866],[-34.941082107850313,-8.0261932991031752],[-34.94116349676824,-8.0262307443591432],[-34.941566369659576,-8.0264188529238023],[-34.942044543041547,-8.0267553103773395],[-34.942447554997131,-8.0269723323799607],[-34.942587998302869,-8.0270500732406109],[-34.942390420093851,-8.0230843119933919],[-34.942360037430937,-8.0224747946070725]]],[[[-34.93771995856671,-8.007320994306367],[-34.937716127994278,-8.0073600267763503],[-34.937693692553573,-8.0075886979620368],[-34.937687380414211,-8.007653025784764],[-34.937663454073721,-8.0078968803418213],[-34.937630057358227,-8.0082372456335431],[-34.937621100148249,-8.0083285411762795],[-34.937609785013159,-8.0084866248846218],[-34.937578573925883,-8.0089226614366424],[-34.937510875325692,-8.009671835046932],[-34.937497922651751,-8.0099017318952228],[-34.937494168194583,-8.0099683638940427],[-34.937494194282586,-8.0102529230849839],[-34.937554313003723,-8.0106399791351723],[-34.937718694028156,-8.0111621144234295],[-34.937869523002711,-8.0114964290542474],[-34.93823443998965,-8.0122228433008882],[-34.938251264088045,-8.0122563326292919],[-34.938517643574507,-8.012787104957809],[-34.938710676089492,-8.0131717281568111],[-34.93884184751812,-8.0134330932883611],[-34.939131987184787,-8.0140112023103036],[-34.939191556508973,-8.0141341698418511],[-34.93927236622622,-8.014286027692739],[-34.939289987802084,-8.0143191434255172],[-34.939437708288338,-8.0145844207974033],[-34.939489060990425,-8.0146766420853854],[-34.939632905179664,-8.014912016114744],[-34.939680857860253,-8.0149904828216645],[-34.93971814434218,-8.0150514945422699],[-34.939744000474654,-8.0150938045731532],[-34.939844109988954,-8.0152595841882288],[-34.939925792129394,-8.0153948483131341],[-34.940079039625971,-8.0156243077752638],[-34.94012056370844,-8.0156864810757096],[-34.940217123847518,-8.0158310618278392],[-34.940286424265544,-8.0159322832493789],[-34.940174268931294,-8.0159950436599079],[-34.938723716032818,-8.016806741285901],[-34.938394956237403,-8.017160592537298],[-34.93814975830486,-8.0167869705579342],[-34.937472252159239,-8.0157546126168899],[-34.937597257604089,-8.0153381607441876],[-34.937724531427826,-8.0154008460725539],[-34.938004873980844,-8.0152277583156337],[-34.938145852758588,-8.0152234917103424],[-34.938253823121045,-8.0152202237991581],[-34.938358544235534,-8.0152170543169525],[-34.938405827775888,-8.0151871707953202],[-34.938524906953184,-8.0151119113796092],[-34.938744414567012,-8.014973183195778],[-34.938819721428985,-8.014925588475057],[-34.938718972439275,-8.0147181310058428],[-34.93907191337081,-8.0145537408228034],[-34.939007827045565,-8.0144274757535428],[-34.937732273742647,-8.0151205537511547],[-34.937542626128867,-8.0152932158079153],[-34.937424422856857,-8.0152304877627856],[-34.937388777264239,-8.0151322689162416],[-34.93681333446537,-8.0139415945274148],[-34.937192088927873,-8.0133420680171632],[-34.937216262816428,-8.0133030122490734],[-34.937267210920382,-8.0131831121282371],[-34.937293441811967,-8.0130154042473389],[-34.937272296871626,-8.0128906401299407],[-34.937156638421335,-8.0123801514342095],[-34.937196355631926,-8.0117421370551192],[-34.937379543748122,-8.010852680953418],[-34.937194347880101,-8.0100797381659774],[-34.937115139736704,-8.0098695233817505],[-34.937062296065754,-8.0097732022993213],[-34.937015356294651,-8.0096942357331802],[-34.936970438674038,-8.0096326410174061],[-34.936924350455499,-8.009588372579481],[-34.936838552801511,-8.0095215274484506],[-34.93676726205166,-8.0094757753734047],[-34.936695326048152,-8.009454112146253],[-34.936608697300422,-8.009441684120624],[-34.936514814080425,-8.0094531264599453],[-34.936433884659742,-8.0094773410125271],[-34.93634614678632,-8.009448430884742],[-34.936310048885431,-8.0094369796610554],[-34.93636459539777,-8.0093779979138926],[-34.936543356919685,-8.0091444899465269],[-34.936733907663744,-8.0088955811515472],[-34.936789915266488,-8.008822420550171],[-34.936888652509452,-8.0086768804222448],[-34.936926272145541,-8.0086223094658386],[-34.936967132466449,-8.0085487661605157],[-34.93704400939145,-8.0084104020171107],[-34.937147425886003,-8.0082242704316595],[-34.937195987862225,-8.0081368679492595],[-34.93771995856671,-8.007320994306367]]],[[[-34.922592837488224,-8.0336334721539728],[-34.922589978867322,-8.033627375874401],[-34.923399366978899,-8.0324355078675413],[-34.923450983726241,-8.0323620592004019],[-34.924464090088875,-8.0308964010075723],[-34.924549391096527,-8.0308105582205691],[-34.925700522899,-8.029532197945807],[-34.925853954975068,-8.0293520626678276],[-34.926024051494714,-8.0290693316805406],[-34.926219046819611,-8.0286156141092881],[-34.926372035502759,-8.0283415083651484],[-34.926517111717708,-8.0282041443069403],[-34.926713969830914,-8.028053821235261],[-34.926856731275748,-8.0282643725864649],[-34.927155301138221,-8.0286464218438773],[-34.927177222794185,-8.0286335375679876],[-34.927419091473006,-8.0290341095816444],[-34.927575996867262,-8.0292871799383363],[-34.927672037793556,-8.0294528905119158],[-34.927638929330065,-8.0298127544165645],[-34.928069395027883,-8.0301941835204218],[-34.928069572536458,-8.030194319201243],[-34.928112894198613,-8.0302250313232939],[-34.927788677960628,-8.0305011154174135],[-34.927740270475802,-8.0304561429693511],[-34.927688108437017,-8.0304901070209915],[-34.927348302613758,-8.0307113613451282],[-34.92737614815605,-8.0307804085520953],[-34.927245722796577,-8.0308758744856004],[-34.927227814748576,-8.0308889822725593],[-34.92731721510696,-8.0309945507162155],[-34.927408090375245,-8.0311018597633286],[-34.927299161134343,-8.031182479793797],[-34.927240955853904,-8.0312255588339934],[-34.927081199325769,-8.0313237640803656],[-34.926754716481945,-8.0315278726103756],[-34.926388715201888,-8.0317321651627243],[-34.925807547264959,-8.0318024130605146],[-34.925673541906413,-8.0317769964003602],[-34.925439692290894,-8.0328114001644],[-34.924007218627096,-8.0325693438345827],[-34.923934413026494,-8.0330262586176637],[-34.923976172775077,-8.0330509673838755],[-34.923903679968056,-8.0335742930122596],[-34.923477601236506,-8.0332940395734997],[-34.923254336721193,-8.0336354402959991],[-34.923029000579625,-8.0335368775817635],[-34.922847025513029,-8.033803372555326],[-34.922592837488224,-8.0336334721539728]]],[[[-34.922592837488224,-8.0336334721539728],[-34.922622799960507,-8.0336973884087222],[-34.922999268195305,-8.0339545717293284],[-34.922697062498202,-8.0341430010026418],[-34.922769767712609,-8.0342577470763903],[-34.92233773467251,-8.034461168751065],[-34.921974277005702,-8.0339018218818392],[-34.921958046210428,-8.033864143236352],[-34.922163390414049,-8.0337863027989727],[-34.922351684212558,-8.0337256179078906],[-34.92251437666846,-8.0336906719421393],[-34.922565481506261,-8.0336220986009739],[-34.922579061098645,-8.0336040849659174],[-34.922589978867322,-8.033627375874401],[-34.922588024165442,-8.033630254505189],[-34.922592837488224,-8.0336334721539728]]]]},"properties":{"OBJECTID":3,"ZONA_NOME":" ","ZONA_TIPO":"SRU-3","NMCONSIDERAC":"- Imóveis localizados na ARU prevalecem os parâmetros definidos na lei 16.719/2001.","DB2GSE.ST_Area(SHAPE)":2135077.6421553548,"DB2GSE.SdeLength(SHAPE)":31368.671782252746}},{"type":"Feature","id":1,"geometry":{"type":"Polygon","coordinates":[[[-34.900537712405452,-8.0420041185700804],[-34.901049304773018,-8.0428708508596944],[-34.901365718740685,-8.0435006578733876],[-34.901538266030876,-8.0438441005279646],[-34.901345067792469,-8.0438406898904979],[-34.901122179670601,-8.0450054620647879],[-34.901887922104834,-8.0450612546143745],[-34.901919631329186,-8.0450641897155144],[-34.901969061622424,-8.0450639607475711],[-34.902018400017887,-8.0450440243476589],[-34.902070580680544,-8.0450757297964124],[-34.902051786280097,-8.0453402631525091],[-34.90202936325165,-8.0456558698452323],[-34.901916339182414,-8.0459991657718852],[-34.901731455761279,-8.0462999551624605],[-34.901403135281996,-8.0465728402445844],[-34.901003189145932,-8.0468460387727863],[-34.900760461114572,-8.0470328347007758],[-34.900871309317353,-8.0472641670329388],[-34.901431215396734,-8.0487345468994285],[-34.901736754468985,-8.0499583829664836],[-34.901769100065607,-8.050466263268639],[-34.901770564020495,-8.0507800334048234],[-34.901965528653108,-8.0507940866669614],[-34.902061483474448,-8.051404160182047],[-34.90211111282423,-8.0516693463780094],[-34.902137891959562,-8.0518418111928813],[-34.902133583611672,-8.0518461462992157],[-34.902165206168753,-8.0520636077700622],[-34.90226776277018,-8.0527688771508235],[-34.902276440810404,-8.0527731511350265],[-34.902280614858974,-8.0528457503722173],[-34.902281152909183,-8.052855109531583],[-34.902191974817299,-8.0532265899571236],[-34.902183886646888,-8.0532266500662164],[-34.90205422260285,-8.0537372531672773],[-34.901950736401915,-8.0540515098924814],[-34.901755927864407,-8.0540673520820825],[-34.901667447057129,-8.0543815573055237],[-34.901562845571036,-8.0544567520305463],[-34.900831536805448,-8.0551624086053284],[-34.900652273692415,-8.0552977201248179],[-34.899317521358022,-8.055199317452324],[-34.898736122761505,-8.0559042752623],[-34.8979541653176,-8.0559139028445657],[-34.897902783050625,-8.0559202974004407],[-34.897883297041325,-8.0557887111584474],[-34.897874603020277,-8.0557300083461332],[-34.897832649438236,-8.0555125803714027],[-34.897735761816996,-8.0552205981609841],[-34.897604979450996,-8.0549763776064189],[-34.897578410848844,-8.0549393801986131],[-34.897432025247717,-8.0547355344218818],[-34.897354300788635,-8.0546273012398562],[-34.897207051408266,-8.0544204315828978],[-34.896837437646127,-8.0539011633286961],[-34.896770494980636,-8.0538071165466345],[-34.896502712104805,-8.0534479168384188],[-34.896436578838532,-8.0533049757164807],[-34.896351619706095,-8.0532377934962138],[-34.896334708342906,-8.0532136958375684],[-34.896110784606996,-8.0528946263878662],[-34.895881348640749,-8.0525677013919701],[-34.895721656563396,-8.0523401543062452],[-34.89531263615094,-8.0517573358349566],[-34.895109889674039,-8.0514684378499357],[-34.895088691324979,-8.0514382329925738],[-34.894947926803312,-8.051256412857871],[-34.893917745965609,-8.049925763569032],[-34.893680188082776,-8.0496117218161807],[-34.893332837355089,-8.0491801792039723],[-34.893256197024918,-8.049084961129001],[-34.892741958947852,-8.0484375520374591],[-34.892479417207255,-8.048107019209791],[-34.892444158243997,-8.048061672396976],[-34.891702543048304,-8.0471078901391326],[-34.891247604074657,-8.0465266634188684],[-34.891217909272605,-8.0464887250251547],[-34.890918491540866,-8.0460876083179613],[-34.890720867780026,-8.045833048923317],[-34.890699141581436,-8.0458050629186548],[-34.890527585926876,-8.0455744670322318],[-34.890416891873059,-8.0454371564765097],[-34.890385300198737,-8.0453979673391309],[-34.890235910794992,-8.0452540389170402],[-34.890042842264911,-8.0450777728295435],[-34.889734879869863,-8.0448218120787729],[-34.889675027479747,-8.0447888518286206],[-34.889499960015307,-8.0446924437987573],[-34.88897556284504,-8.0444036602475677],[-34.888934685630062,-8.0443848237739619],[-34.888866115465532,-8.0443532252398775],[-34.88790886203271,-8.0439121110260867],[-34.887792394561508,-8.04385803919293],[-34.886951553121378,-8.0434676610140521],[-34.885984361590005,-8.0430134001039306],[-34.884861433356789,-8.0424859886953062],[-34.884730666119623,-8.0424308233002613],[-34.884810114758274,-8.0423521816571064],[-34.885602358015838,-8.0415681021441028],[-34.885721666038826,-8.0414536675357642],[-34.886247988699708,-8.0409488486756366],[-34.886318666633869,-8.0408810581200374],[-34.886683282759456,-8.0405313367239462],[-34.886852700402912,-8.0403852333442938],[-34.886970858426757,-8.0402833442881452],[-34.887270075733149,-8.0400253217389235],[-34.887600798027925,-8.0398442894178821],[-34.88795008674149,-8.0396530947216256],[-34.888391556485004,-8.0394714589824439],[-34.888624722924931,-8.0393747737664043],[-34.888837335348128,-8.0393388655653908],[-34.889487878776201,-8.0392310466632715],[-34.889723792981684,-8.0391919461691952],[-34.890383839362855,-8.0391484796861246],[-34.890437844601649,-8.0392812689309388],[-34.890679903731311,-8.0396703983410873],[-34.891831897719733,-8.0405549683801496],[-34.892070263777839,-8.0400493805390436],[-34.892175418253565,-8.0398112986162076],[-34.89223362939731,-8.0396924988620633],[-34.892416022881896,-8.0399017788315046],[-34.892528662640778,-8.0398866220928014],[-34.893105947795846,-8.0397775916584546],[-34.893684554855042,-8.0396810532364142],[-34.893720846825246,-8.0396614474318131],[-34.893756745665279,-8.0396460627583366],[-34.89454521325947,-8.0393189578005622],[-34.89459066214765,-8.0392886651306625],[-34.894277217579933,-8.0383173910324306],[-34.89430058192228,-8.0382570899804016],[-34.895329356350864,-8.0379544581432381],[-34.895700520909116,-8.0379288704355929],[-34.895796222542018,-8.0379045541519218],[-34.896204711320358,-8.0377335045142946],[-34.896637064214026,-8.0375534835812665],[-34.896967039190145,-8.0374199928988315],[-34.898055584652532,-8.036986870956472],[-34.898115562716974,-8.036955352795502],[-34.898170210508134,-8.036904421662026],[-34.898336227001778,-8.036818676508565],[-34.898654885701418,-8.0366540916641416],[-34.898939763402922,-8.0365069585254716],[-34.899366971789632,-8.0362841611311229],[-34.899262746831923,-8.0359218228265039],[-34.899255214881833,-8.0358840203593491],[-34.899195732209336,-8.0355855116692023],[-34.899149379824614,-8.0352508724783949],[-34.899496835048225,-8.0351916767900864],[-34.899746183569924,-8.0351428464702526],[-34.90009384229274,-8.0350668209667457],[-34.900202786094091,-8.0350429968560544],[-34.900214346427212,-8.0350430130343629],[-34.900069461452766,-8.0347929941876277],[-34.899606630423207,-8.0340212673504166],[-34.899099181663686,-8.0331984810662398],[-34.898769509370304,-8.0326600999020279],[-34.898416142431117,-8.0321027435524233],[-34.898055785596057,-8.0314945249877123],[-34.898602607529611,-8.0309916893645674],[-34.899139547567025,-8.0305594582481881],[-34.900237877768568,-8.029802319932088],[-34.901969004192175,-8.0286244412465209],[-34.903712041115384,-8.0274345641257909],[-34.904862903326581,-8.0266461365314061],[-34.905550553491267,-8.0261750024797749],[-34.906001259930967,-8.026258865260127],[-34.906288911006797,-8.0263052840796743],[-34.906682130958096,-8.0263894114276155],[-34.906746359369215,-8.026408774643615],[-34.906795806906175,-8.0266591617799037],[-34.906969341268123,-8.0275113337144024],[-34.907093502856839,-8.0281541212174456],[-34.907130093500726,-8.0283435557639198],[-34.907352465512076,-8.0294461114573803],[-34.907377972744726,-8.0295661828698783],[-34.907445006265327,-8.0298817221915275],[-34.907120144187189,-8.030087704532864],[-34.907319889923897,-8.0302251082246912],[-34.907531783880202,-8.0303433316760167],[-34.90804095001338,-8.0306274134871494],[-34.908100305509905,-8.0306605299224394],[-34.908378910770672,-8.0308766035064227],[-34.908588758730069,-8.0310396196951732],[-34.907918254788839,-8.032556131055788],[-34.907858772705119,-8.0326674736994068],[-34.907670234462849,-8.0326768945593177],[-34.907241946830602,-8.0327386872041515],[-34.907182264217354,-8.0328073179769834],[-34.906961760056802,-8.0333123963355568],[-34.9069530624352,-8.0333197668670255],[-34.906799541686588,-8.0334498547754265],[-34.906543224592184,-8.0336304631809412],[-34.906260963083206,-8.0337599129341459],[-34.906135462101481,-8.0338171103342457],[-34.905995810549584,-8.0338807560350229],[-34.905922364825386,-8.0339423327683654],[-34.905661443228368,-8.0338652307671214],[-34.905536154091692,-8.0340580863502975],[-34.905212687666243,-8.0345338235390837],[-34.904954939209574,-8.0349129048261325],[-34.904932843396672,-8.0349383112357753],[-34.904639994924501,-8.0352750402713369],[-34.904329018827539,-8.0356333754868032],[-34.904304120064992,-8.0356620639840184],[-34.904272144682679,-8.0357014777062084],[-34.903837337506658,-8.0362374287268779],[-34.903733930098561,-8.036364296779487],[-34.903701307107582,-8.0364043210163238],[-34.903638027375123,-8.0364808236545109],[-34.901865542487755,-8.0386964711330968],[-34.901796616943791,-8.0387586376875166],[-34.902676692482856,-8.0392508814897639],[-34.902542379573461,-8.0394570639306799],[-34.902304372667366,-8.0393297172790117],[-34.901671302558682,-8.0402044260861114],[-34.900839431327995,-8.0406444363331584],[-34.900441611126936,-8.0409672930377969],[-34.900950165119134,-8.041335066257437],[-34.90090318278024,-8.041749140742283],[-34.900537712405452,-8.0420041185700804]],[[-34.899863087442135,-8.047582226788828],[-34.899585696192077,-8.0478406170581618],[-34.899431787333548,-8.0480264435927094],[-34.899185732818744,-8.0483669620212712],[-34.899133950743426,-8.048326064511345],[-34.898740807946446,-8.0481016310589872],[-34.898485489399185,-8.0486684444748136],[-34.899211542240906,-8.0494775383191151],[-34.899704848834048,-8.0490536019992671],[-34.899808413290287,-8.0491353958894294],[-34.899870083771106,-8.0490836894791187],[-34.899890863038891,-8.0491144465593596],[-34.900456299347958,-8.0486696071406207],[-34.899863087442135,-8.047582226788828]],[[-34.89966755478391,-8.0514648469965842],[-34.899664340317152,-8.0514668408943884],[-34.899340026420028,-8.0516273533711153],[-34.899134860076479,-8.0517302716667185],[-34.899076424472661,-8.0517328719572543],[-34.898716913128872,-8.0518463832978622],[-34.898565233572889,-8.0519076698866332],[-34.898752368487663,-8.0524310918904884],[-34.898969649295118,-8.0523997942958356],[-34.89900630872873,-8.0525276213888297],[-34.899067088491606,-8.052739548458236],[-34.899272558110745,-8.0531836585066294],[-34.899715440062081,-8.0528996582617829],[-34.899500618408453,-8.0524555900024914],[-34.899573512021654,-8.0524619299534539],[-34.899907582343815,-8.0524909884591427],[-34.899925260152848,-8.0523580387210387],[-34.899946169498143,-8.0521179948098531],[-34.900065930127987,-8.0520854332911114],[-34.900393471312476,-8.0519412590323007],[-34.900575630027035,-8.0518610792753087],[-34.900322510050067,-8.0511114607117484],[-34.900307744843069,-8.0510677322337578],[-34.899763882943397,-8.0514050947332674],[-34.89966755478391,-8.0514648469965842]],[[-34.901700607850771,-8.0299305799032936],[-34.901753694306663,-8.0299149390341711],[-34.901793917084248,-8.0301097623238622],[-34.90186789144856,-8.0301184583128524],[-34.901962511871517,-8.0303848395784865],[-34.902414689146092,-8.0306764018300143],[-34.902685875424275,-8.030434094835659],[-34.90299285639621,-8.0306886516848763],[-34.903231224243825,-8.0308863115647107],[-34.903246824211116,-8.0309088854602138],[-34.903461646080089,-8.0308813342518821],[-34.903162098732423,-8.0302078501331131],[-34.903032672537954,-8.0302884402746493],[-34.902990518012984,-8.0302311155626853],[-34.902939559442025,-8.0301618182712193],[-34.90280768030992,-8.0299824837569691],[-34.902545784897448,-8.0296922775803559],[-34.902283284056786,-8.0292693806104669],[-34.901640106217258,-8.0296916023308924],[-34.901700607850771,-8.0299305799032936]],[[-34.887341661415185,-8.0417736099462243],[-34.887408898375341,-8.0417298618242423],[-34.887165138588628,-8.0413946707331299],[-34.887076746729107,-8.0414571680477884],[-34.886954560947807,-8.0412924338415408],[-34.886872822531863,-8.0413465296829774],[-34.886685529182927,-8.041098889293016],[-34.886605927047604,-8.0411551785107829],[-34.88646475514706,-8.0412550070488713],[-34.886282587885759,-8.0410138459119427],[-34.885812165771604,-8.0414864742945831],[-34.886088247325851,-8.0417754108660002],[-34.88617853183375,-8.0419092059956636],[-34.886217449908969,-8.042175585167417],[-34.886721356472336,-8.041853458222544],[-34.887157164974013,-8.0424424951367097],[-34.887736366433302,-8.0420157066874562],[-34.887601729841819,-8.041858226463761],[-34.887468196510618,-8.0419394387091305],[-34.887341661415185,-8.0417736099462243]],[[-34.897003396765875,-8.0446308716853743],[-34.897022614219196,-8.0445176272038967],[-34.897032167106182,-8.0444487052959079],[-34.897061279711899,-8.0443403341682913],[-34.896641352570654,-8.0442635562131422],[-34.896558720877302,-8.044539449939677],[-34.896672363858947,-8.0445635239909485],[-34.896865073949336,-8.0446069117439887],[-34.897003396765875,-8.0446308716853743]]]},"properties":{"OBJECTID":1,"ZONA_NOME":"SRU","ZONA_TIPO":"SRU-1","NMCONSIDERAC":"- Imóveis localizados na ARU prevalecem os parâmetros definidos na lei 16.719/2001.","DB2GSE.ST_Area(SHAPE)":2868563.3605590598,"DB2GSE.SdeLength(SHAPE)":13522.656699051624}}]}