{"type":"FeatureCollection","features":[{"type":"Feature","id":1,"geometry":{"type":"Polygon","coordinates":[[[-34.890931962985867,-8.0808481695972745],[-34.890784925383144,-8.0807078011965192],[-34.890676345550766,-8.0806040607007326],[-34.890577971235174,-8.0805100704401092],[-34.890473460642966,-8.0804577014303014],[-34.890421384022787,-8.0804316055903982],[-34.890224485518409,-8.0803850221311269],[-34.890036803840459,-8.0803406190824685],[-34.889927518122782,-8.0803147632185937],[-34.889889842663713,-8.0803058495976963],[-34.889873315418505,-8.0803039216557941],[-34.889722425155313,-8.0804190100463131],[-34.889552247673848,-8.0805500369007532],[-34.889399321081783,-8.0806734033055072],[-34.889314563435285,-8.0807358146343073],[-34.888786919674907,-8.0802554802308038],[-34.889820266004598,-8.079475560267273],[-34.890164796132062,-8.0792196891805546],[-34.890866930817175,-8.078701957038076],[-34.891261048100063,-8.078312918061],[-34.891500177163195,-8.0786806296568727],[-34.891712763065136,-8.0790117963182571],[-34.891839078944031,-8.0792226199816373],[-34.891881458131877,-8.0793233186968241],[-34.891893744422838,-8.0793708162039479],[-34.89190192281233,-8.0795011966267207],[-34.891899519822537,-8.0795707256980318],[-34.891895272153889,-8.0796134791747374],[-34.891878330178315,-8.0796966068092768],[-34.891866801691727,-8.0797340897651964],[-34.891845390306592,-8.0797923145364692],[-34.891811791961594,-8.0798691599743773],[-34.891794156538872,-8.0798992396884586],[-34.891771292134386,-8.0799382378872817],[-34.891744082679445,-8.0799741606357376],[-34.891715695591763,-8.0800071297937954],[-34.89169858572204,-8.0800261791655394],[-34.891522819626566,-8.0802114065191226],[-34.891266168054742,-8.0804818726547065],[-34.891080935662998,-8.0806770758675057],[-34.891017124267755,-8.0807443223354287],[-34.891008273102734,-8.0807536490351399],[-34.891015719916815,-8.0807606672840144],[-34.890961320663337,-8.0808174995624782],[-34.890931962985867,-8.0808481695972745]]]},"properties":{"OBJECTID":1,"ID":0,"SETORES":"4","ZONAS":"Z 04","DB2GSE.ST_Area(SHAPE)":46473.851122065003,"DB2GSE.SdeLength(SHAPE)":979.94130790774807}},{"type":"Feature","id":2,"geometry":{"type":"Polygon","coordinates":[[[-34.875471689872185,-8.0708472569534084],[-34.87542643946022,-8.0708549699852909],[-34.875288212402779,-8.0705350540403931],[-34.875066581090479,-8.0700971257261145],[-34.874232369966862,-8.0683152481666323],[-34.874890777217516,-8.0677933365510679],[-34.875161416940337,-8.0675648512358293],[-34.875544798538868,-8.0672438806231987],[-34.875609447200489,-8.067140106709676],[-34.87570202517287,-8.0669696064431733],[-34.875736986574509,-8.0668967878109079],[-34.875887079355849,-8.0669608543972569],[-34.876043195870693,-8.0672684977372775],[-34.876413362099811,-8.0687124292130488],[-34.877809680516748,-8.0717315859571013],[-34.875471689872185,-8.0708472569534084]]]},"properties":{"OBJECTID":2,"ID":9,"SETORES":"9b","ZONAS":"Z 09","DB2GSE.ST_Area(SHAPE)":89843.157137225004,"DB2GSE.SdeLength(SHAPE)":1410.6238152463554}},{"type":"Feature","id":3,"geometry":{"type":"Polygon","coordinates":[[[-34.879187470222107,-8.0728402491518558],[-34.87804197573476,-8.072386332424097],[-34.876947406407659,-8.0719473877439327],[-34.875860575927987,-8.0715208434077272],[-34.875911605315608,-8.0713445537365036],[-34.875674017759621,-8.0712461328128864],[-34.875576105247909,-8.0710408644907954],[-34.875544075525518,-8.07096542262925],[-34.875477678901149,-8.0709322377914763],[-34.875468100055528,-8.0709370660919344],[-34.875459581727682,-8.0709202792199353],[-34.87542643946022,-8.0708549699852909],[-34.875471689872185,-8.0708472569534084],[-34.877809680516748,-8.0717315859571013],[-34.879138090128158,-8.0722541001929873],[-34.879397226650759,-8.07240781199922],[-34.879187470222107,-8.0728402491518558]]]},"properties":{"OBJECTID":3,"ID":9,"SETORES":"9a","ZONAS":"Z 09","DB2GSE.ST_Area(SHAPE)":24190.546847415,"DB2GSE.SdeLength(SHAPE)":1021.6691022933514}},{"type":"Feature","id":4,"geometry":{"type":"Polygon","coordinates":[[[-34.885374186282071,-8.0734949642478622],[-34.885261842246244,-8.0734652829214415],[-34.885160029505883,-8.0734421302159625],[-34.885055546793829,-8.0734255678597346],[-34.884969768989116,-8.0734179519628384],[-34.884969669164363,-8.0734179433818909],[-34.884949897250991,-8.0734161874278403],[-34.884875473845831,-8.0734120451142459],[-34.884736233979737,-8.0734052115431414],[-34.884572705197328,-8.0733955650918272],[-34.884572652567783,-8.0733955617179056],[-34.884531716833351,-8.0733931464987982],[-34.884275054000106,-8.073375436821129],[-34.884258733934601,-8.0733743104499958],[-34.88419954860062,-8.0733717360337707],[-34.884199496882388,-8.0733717335596804],[-34.884154306946648,-8.0733697682323253],[-34.884060973313261,-8.0733626796519555],[-34.883985038330053,-8.0733569131724021],[-34.883884767422614,-8.0733426925648608],[-34.883809166863124,-8.0733307921407089],[-34.883733737978233,-8.0733167871183333],[-34.883669777374919,-8.0733016642837345],[-34.883669703818839,-8.0733016474448345],[-34.88366932149524,-8.0733015569886515],[-34.883670018488068,-8.073299666966264],[-34.883673374924292,-8.0732904742045495],[-34.883935096979378,-8.0725404032026038],[-34.884595425191165,-8.071964701075439],[-34.885776975832464,-8.072388759151071],[-34.885398051545074,-8.0734807606050225],[-34.885393831184302,-8.0734939795988545],[-34.885392023492997,-8.0735006781098999],[-34.885374186282071,-8.0734949642478622]]]},"properties":{"OBJECTID":4,"ID":7,"SETORES":"7a","ZONAS":"Z 07","DB2GSE.ST_Area(SHAPE)":26138.174156559999,"DB2GSE.SdeLength(SHAPE)":646.08548546162365}},{"type":"Feature","id":5,"geometry":{"type":"Polygon","coordinates":[[[-34.883935096979378,-8.0725404032026038],[-34.881423082046283,-8.0693582627121838],[-34.882330748721017,-8.0687856915107705],[-34.884595425191165,-8.071964701075439],[-34.883935096979378,-8.0725404032026038]]]},"properties":{"OBJECTID":5,"ID":7,"SETORES":"7b","ZONAS":"Z 07","DB2GSE.ST_Area(SHAPE)":47125.915219194998,"DB2GSE.SdeLength(SHAPE)":1094.2374811304178}},{"type":"Feature","id":6,"geometry":{"type":"Polygon","coordinates":[[[-34.881284068945597,-8.0733600475712013],[-34.88098759864814,-8.0732491977679892],[-34.880820705902622,-8.0731791482260018],[-34.880727348870337,-8.0731399631890426],[-34.880588810697688,-8.0730697416270285],[-34.880361078695941,-8.0729543099266063],[-34.880205359078204,-8.0728753785788836],[-34.880068695969086,-8.0728061074143138],[-34.879864204238721,-8.0726848096008865],[-34.879675536566218,-8.0725728974770767],[-34.879417256729532,-8.0724196936718648],[-34.879251081712745,-8.0723211235053061],[-34.879138090128158,-8.0722541001929873],[-34.879269135151695,-8.072271591853184],[-34.879526829219564,-8.0723059858777617],[-34.88012113718429,-8.0724025983011849],[-34.880489855143885,-8.0724666860589611],[-34.880565506769265,-8.0724771024201694],[-34.880751663173825,-8.0725085398178056],[-34.881079490538404,-8.0725536782398581],[-34.881687198787901,-8.0726561347899644],[-34.881853886383936,-8.0727185490742031],[-34.881888496253822,-8.0727289152234842],[-34.882182714319377,-8.0728242010775126],[-34.882477901068263,-8.0729213952655883],[-34.88276730556602,-8.0730138323245821],[-34.882898082347403,-8.0730591578720983],[-34.883065385903642,-8.0731138840690022],[-34.883284601242615,-8.0731836800610441],[-34.883452869027288,-8.0732393572501522],[-34.883623062189017,-8.0732906190129725],[-34.883624958938974,-8.0732911907010063],[-34.883627501137227,-8.073291669009981],[-34.883733737978233,-8.0733167871183333],[-34.883809166863124,-8.0733307921407089],[-34.883884767422614,-8.0733426925648608],[-34.883961986449009,-8.0733536434718847],[-34.883892040366504,-8.0735414326898329],[-34.883611006165744,-8.0742829415654356],[-34.883118264979558,-8.0740874051722979],[-34.882731607772378,-8.0739332225943112],[-34.882250703204321,-8.0737440711649597],[-34.881903479066843,-8.0736050159577957],[-34.881399485556557,-8.073405444227939],[-34.881284068945597,-8.0733600475712013]]]},"properties":{"OBJECTID":6,"ID":0,"SETORES":"8","ZONAS":"Z 08","DB2GSE.ST_Area(SHAPE)":39216.798002039999,"DB2GSE.SdeLength(SHAPE)":1200.0447101767163}},{"type":"Feature","id":7,"geometry":{"type":"Polygon","coordinates":[[[-34.899008770450578,-8.0810712517815588],[-34.898229681967877,-8.0809201616085886],[-34.897612577190017,-8.0808004830744409],[-34.897228862913664,-8.0807261988917336],[-34.897228904957267,-8.0807260721264793],[-34.896261118511077,-8.0805383851039316],[-34.896407256359169,-8.0799451833685598],[-34.896426110506319,-8.0798686556581885],[-34.896513700512514,-8.079513114231391],[-34.896580638945998,-8.0792377215325306],[-34.896640718852694,-8.0790096255747805],[-34.896649910374087,-8.0789747345543859],[-34.896733150808721,-8.0786587113614576],[-34.896779532383768,-8.0784833683076833],[-34.896891867076064,-8.0785143975861438],[-34.897146806256458,-8.0785901099512412],[-34.897442656260949,-8.0786779692846942],[-34.897537257205258,-8.0787060628519001],[-34.897603238061713,-8.0787256589292351],[-34.897696793024757,-8.0787578165924501],[-34.897886152657044,-8.0788229007133463],[-34.897971149534492,-8.0788521154887256],[-34.898102991154417,-8.0788974304036678],[-34.89827103509662,-8.0789551881143726],[-34.898501645366849,-8.0790344515382646],[-34.898713930110539,-8.0791074153482771],[-34.898965959877899,-8.0791940394098667],[-34.898979150730533,-8.0791996882677299],[-34.899088149024386,-8.0792310686665374],[-34.899206807280976,-8.0792684198572378],[-34.899389021787563,-8.0793112166432639],[-34.899458678913369,-8.0793270198991038],[-34.899581644054457,-8.0793468589892132],[-34.899921162050013,-8.0793802691465064],[-34.900080681508285,-8.0793916045023888],[-34.899894581478442,-8.0799370943114752],[-34.899688217401803,-8.0805337962844952],[-34.899615529591429,-8.080745522138665],[-34.89955618188538,-8.0809183959326418],[-34.899493709408276,-8.0810356965229104],[-34.89943869952085,-8.0810910353652421],[-34.899344394110997,-8.081136340766168],[-34.899008770450578,-8.0810712517815588]]]},"properties":{"OBJECTID":7,"ID":0,"SETORES":"2b","ZONAS":"Z 02","DB2GSE.ST_Area(SHAPE)":78961.474680105006,"DB2GSE.SdeLength(SHAPE)":1172.9003987411047}},{"type":"Feature","id":8,"geometry":{"type":"Polygon","coordinates":[[[-34.895004461090849,-8.0791288881511729],[-34.895019120572954,-8.0790818463606158],[-34.895094364259904,-8.0788512138514719],[-34.895074822077689,-8.0787974433292842],[-34.895075776707827,-8.0787842900594864],[-34.895115386755265,-8.0786560914907053],[-34.895179347030492,-8.0784720566014343],[-34.895262695692828,-8.0782322427422439],[-34.89529073910451,-8.0781439855037629],[-34.895387465906566,-8.0778395660371807],[-34.895388185994129,-8.0778371940275591],[-34.895433250942808,-8.0776968320960876],[-34.895444317797654,-8.0776598385588425],[-34.895475099515807,-8.0776807779874904],[-34.895481321873234,-8.0776855045754701],[-34.895482525380878,-8.0776864193444133],[-34.895597942644052,-8.0777740957540178],[-34.895705139605013,-8.0778579181871315],[-34.89576598083449,-8.0779013137551221],[-34.895812358559176,-8.0779343930767666],[-34.895855359559967,-8.0779650642245358],[-34.895881285380476,-8.0779803639122889],[-34.895905509253474,-8.0779946589258866],[-34.895935120052727,-8.0780121329997403],[-34.895955944582667,-8.0780244222609472],[-34.895977623271833,-8.0780372156500029],[-34.896002718534021,-8.078049291637349],[-34.896030955935103,-8.0780628800348371],[-34.89608275208775,-8.0780878056745848],[-34.896132994451847,-8.0781119836093467],[-34.896175680594546,-8.0781325242267936],[-34.896599381510299,-8.0782770717281434],[-34.896815971480287,-8.0783524694779327],[-34.896784511761723,-8.0784645423080317],[-34.896733150808721,-8.0786587113614576],[-34.896649910374087,-8.0789747345543859],[-34.896640718852694,-8.0790096255747805],[-34.896580638945998,-8.0792377215325306],[-34.896513700512514,-8.079513114231391],[-34.895004461090849,-8.0791288881511729]]]},"properties":{"OBJECTID":8,"ID":0,"SETORES":"2c","ZONAS":"Z 02","DB2GSE.ST_Area(SHAPE)":24618.850088660001,"DB2GSE.SdeLength(SHAPE)":646.36373100197591}},{"type":"Feature","id":9,"geometry":{"type":"Polygon","coordinates":[[[-34.892256095695998,-8.0796434205010339],[-34.892231540268355,-8.0796097615137885],[-34.892209670167325,-8.0795706873453046],[-34.892197241403998,-8.0795214366116692],[-34.892189594680225,-8.0794802696841153],[-34.892188077124693,-8.0794458278333696],[-34.892195278807939,-8.0793910835055236],[-34.892216759844572,-8.0793232887750737],[-34.892234761672597,-8.0792599075657616],[-34.892238823542527,-8.0792485444365809],[-34.892256240898064,-8.0791438280085899],[-34.892263211440564,-8.0790457036186076],[-34.892574365220028,-8.0781430239925847],[-34.892777390129957,-8.0775338644878598],[-34.89297557911253,-8.0769542002198005],[-34.893069574474296,-8.0767515960203724],[-34.893161195335757,-8.0766294925711239],[-34.893213025912537,-8.0766472690767923],[-34.89321476859012,-8.0766478667408155],[-34.894020064159207,-8.0769240608123667],[-34.89402138888488,-8.07692451485185],[-34.894032222030383,-8.0769282310606236],[-34.894183648790822,-8.0769748915595372],[-34.89434958317733,-8.0770444491865376],[-34.894460715296823,-8.0770970379605949],[-34.894586234575911,-8.0771466887164731],[-34.894703126045997,-8.0771992507328765],[-34.894830166206965,-8.0772661169589899],[-34.894892255385223,-8.0773017101864752],[-34.894919318825124,-8.0773166502861589],[-34.894919648965718,-8.0773168322835645],[-34.894928350884292,-8.0773216359941227],[-34.895004651544618,-8.0773621375707734],[-34.895330619819568,-8.0775797863113041],[-34.89539564219551,-8.0776267273388385],[-34.895444317797654,-8.0776598385588425],[-34.895433250942808,-8.0776968320960876],[-34.895388185994129,-8.0778371940275591],[-34.895387465906566,-8.0778395660371807],[-34.89529073910451,-8.0781439855037629],[-34.895262695692828,-8.0782322427422439],[-34.895179347030492,-8.0784720566014343],[-34.895115386755265,-8.0786560914907053],[-34.895075776707827,-8.0787842900594864],[-34.895074822077689,-8.0787974433292842],[-34.895094364259904,-8.0788512138514719],[-34.895019120572954,-8.0790818463606158],[-34.895004461090849,-8.0791288881511729],[-34.894997861982667,-8.0791540465541374],[-34.894954616563197,-8.0792586349158029],[-34.894886463417471,-8.0794601903023437],[-34.894778030826345,-8.079792719260821],[-34.89469528180102,-8.0800689844233116],[-34.894043557299433,-8.0798542613868261],[-34.893846053061409,-8.07978918967369],[-34.893402881097899,-8.0796408348702506],[-34.893168861848821,-8.0796600632293174],[-34.89292758206291,-8.0797494234002372],[-34.89283448849303,-8.079799936485955],[-34.892717577863969,-8.0798744111053935],[-34.892643794968251,-8.0799606108140445],[-34.892545179681591,-8.0800794866168193],[-34.892545294769803,-8.08003722058797],[-34.892540950217189,-8.0799778013967014],[-34.892534523340778,-8.0799075845331476],[-34.892517968970523,-8.0798455186711102],[-34.892483126828324,-8.0797862406349648],[-34.892402004928115,-8.0797349681054591],[-34.892317677061165,-8.0796945701400738],[-34.892290722811111,-8.0796709665323974],[-34.892256095695998,-8.0796434205010339]]]},"properties":{"OBJECTID":9,"ID":0,"SETORES":"2e","ZONAS":"Z 02","DB2GSE.ST_Area(SHAPE)":90656.065718825004,"DB2GSE.SdeLength(SHAPE)":1237.4332832412138}},{"type":"Feature","id":10,"geometry":{"type":"Polygon","coordinates":[[[-34.899889917627824,-8.0812492901333393],[-34.89993756828445,-8.0812473726424834],[-34.900075378936116,-8.0812048718519591],[-34.900177075596908,-8.0811386171665429],[-34.900250858831505,-8.0810687602059303],[-34.900278632306417,-8.0810424654910573],[-34.9004326349921,-8.0807998546416666],[-34.900595745220699,-8.0805428972285398],[-34.900595835281493,-8.0805427575829842],[-34.900647934849083,-8.080460682522542],[-34.900874187383202,-8.0799928590229015],[-34.901000257411148,-8.0797321844611467],[-34.901124652581608,-8.0794749676143489],[-34.901208600797368,-8.0794841730993667],[-34.901358360415607,-8.0794949548233337],[-34.901600349819731,-8.0795655692827903],[-34.901520087316314,-8.0797297673104307],[-34.901298975619525,-8.0801821038454111],[-34.901121981749434,-8.0805441879929223],[-34.900999808774593,-8.0807389811590582],[-34.900731439603902,-8.0811993241314273],[-34.900760381923796,-8.0812293285667121],[-34.900607201751377,-8.0814237948453265],[-34.900420724870308,-8.0815811003722509],[-34.900266981090041,-8.0816550113639458],[-34.899862758243287,-8.0817501785843895],[-34.899580572191319,-8.0817407179662872],[-34.898799852719478,-8.0814537476161448],[-34.898742585720456,-8.0816297506607224],[-34.897528080204999,-8.0811930057449644],[-34.897522826737109,-8.0811912201766845],[-34.896460188138164,-8.0808301426565929],[-34.896217707889008,-8.0809634193426056],[-34.895841600626085,-8.0808770635292451],[-34.894154289531926,-8.0812071851074609],[-34.894152815855861,-8.081207474006538],[-34.892687201766364,-8.0814722334099276],[-34.892463958131977,-8.0816854704641266],[-34.892360441348323,-8.0815661552432179],[-34.892132333216175,-8.0816431091160048],[-34.891800631392982,-8.0816005941457902],[-34.891778704382936,-8.0815847658150766],[-34.891927487714902,-8.0814036510056848],[-34.89192832840061,-8.0814026255102114],[-34.891979529844349,-8.0813356696196372],[-34.891989228500393,-8.0813246402220553],[-34.892060239137621,-8.0812375854679068],[-34.89209084202772,-8.081194603333735],[-34.892125385186397,-8.0811460881046351],[-34.892184387259604,-8.0810505399880768],[-34.892236993269059,-8.0809513509289115],[-34.892282976594352,-8.0808489450847816],[-34.892319371139436,-8.0807519465948658],[-34.892373984521505,-8.0805918099807688],[-34.892447586299753,-8.08037600295674],[-34.892545179681591,-8.0800794866168193],[-34.892643794968251,-8.0799606108140445],[-34.892717577863969,-8.0798744111053935],[-34.89283448849303,-8.079799936485955],[-34.89292758206291,-8.0797494234002372],[-34.893168861848821,-8.0796600632293174],[-34.893254829955353,-8.0796529985391849],[-34.893402881097899,-8.0796408348702506],[-34.893287379706017,-8.0799751358896224],[-34.89314571193777,-8.080385999379434],[-34.89302994080429,-8.0807049233526875],[-34.892954241461268,-8.0809252822047455],[-34.892932474449033,-8.0809861946610901],[-34.892999316325479,-8.0809763634511675],[-34.893636399559689,-8.0808491534535261],[-34.894485914201574,-8.0806795245274738],[-34.894654287161416,-8.0806459047070209],[-34.89579296864229,-8.0804185334133649],[-34.896042052988783,-8.0804959007172901],[-34.896213471959165,-8.0805291440636804],[-34.896261118511077,-8.0805383851039316],[-34.896921680139265,-8.0806664927040757],[-34.896921772750623,-8.0806665103558313],[-34.897228904058586,-8.0807260739388198],[-34.897228861090973,-8.0807261970920479],[-34.897612577181562,-8.0808004812663423],[-34.897643566166188,-8.0808064923514067],[-34.89764434701307,-8.0808066424192777],[-34.897985087792293,-8.0808727232386861],[-34.897985145907526,-8.0808727356258849],[-34.898123155383928,-8.0808994991206831],[-34.898175425353642,-8.0809096369886699],[-34.898229681950987,-8.0809201579923933],[-34.899008770433674,-8.0810712481653493],[-34.899344394094079,-8.0811363371499656],[-34.899473699849224,-8.081161412000176],[-34.899889629212474,-8.0812493023225702],[-34.899889917627824,-8.0812492901333393]]]},"properties":{"OBJECTID":10,"ID":0,"SETORES":"3a","ZONAS":"Z 03","DB2GSE.ST_Area(SHAPE)":70085.617030950001,"DB2GSE.SdeLength(SHAPE)":2823.9262997215337}},{"type":"Feature","id":11,"geometry":{"type":"Polygon","coordinates":[[[-34.900960095066679,-8.079815228345284],[-34.900959318807324,-8.0798168330631785],[-34.900874187383202,-8.0799928590229015],[-34.900647934849083,-8.080460682522542],[-34.900595835281493,-8.0805427575829842],[-34.900595745220699,-8.0805428972285398],[-34.9004326349921,-8.0807998546416666],[-34.900278632306417,-8.0810424654910573],[-34.900250858831505,-8.0810687602059303],[-34.900177075596908,-8.0811386171665429],[-34.900075378936116,-8.0812048718519591],[-34.89993756828445,-8.0812473726424834],[-34.899889917627824,-8.0812492901333393],[-34.899889629212474,-8.0812493023225702],[-34.899473699849224,-8.081161412000176],[-34.899344394102535,-8.0811363389580713],[-34.89943869952085,-8.0810910353652421],[-34.899493709408276,-8.0810356965229104],[-34.89955618188538,-8.0809183959326418],[-34.899615529591429,-8.080745522138665],[-34.899688217401803,-8.0805337962844952],[-34.899894581478442,-8.0799370943114752],[-34.900080681508285,-8.0793916045023888],[-34.900358052123686,-8.0794124119154649],[-34.90054893809382,-8.0794282690227313],[-34.900858668052564,-8.0794519452731297],[-34.901124652581608,-8.0794749676143489],[-34.901000257411148,-8.0797321844611467],[-34.900961237890002,-8.0798128652160859],[-34.900960095066679,-8.079815228345284]]]},"properties":{"OBJECTID":11,"ID":0,"SETORES":"2a","ZONAS":"Z 02","DB2GSE.ST_Area(SHAPE)":20204.00427266,"DB2GSE.SdeLength(SHAPE)":637.40957409965949}},{"type":"Feature","id":12,"geometry":{"type":"Polygon","coordinates":[[[-34.894443916309896,-8.0799861670459041],[-34.89469528180102,-8.0800689844233116],[-34.895151186687798,-8.0802191897994984],[-34.89579296864229,-8.0804185334133649],[-34.894654287161416,-8.0806459047070209],[-34.894485914201574,-8.0806795245274738],[-34.893636399559689,-8.0808491534535261],[-34.892999316325479,-8.0809763634511675],[-34.892932474449033,-8.0809861946610901],[-34.892954241461268,-8.0809252822047455],[-34.89302994080429,-8.0807049233526875],[-34.89314571193777,-8.080385999379434],[-34.893287379706017,-8.0799751358896224],[-34.893402881097899,-8.0796408348702506],[-34.893846053061409,-8.07978918967369],[-34.894043557299433,-8.0798542613868261],[-34.894344619925086,-8.0799534521174881],[-34.894443916309896,-8.0799861670459041]]]},"properties":{"OBJECTID":12,"ID":0,"SETORES":"3b","ZONAS":"Z 03","DB2GSE.ST_Area(SHAPE)":21718.484248715002,"DB2GSE.SdeLength(SHAPE)":756.29767341844388}},{"type":"Feature","id":13,"geometry":{"type":"Polygon","coordinates":[[[-34.883892040366504,-8.0735414326898329],[-34.883961986449009,-8.0733536434718847],[-34.883985038330053,-8.0733569131724021],[-34.884154306946648,-8.0733697682323253],[-34.884258733934601,-8.0733743104499958],[-34.884531716833351,-8.0733931464987982],[-34.884736233979737,-8.0734052115431414],[-34.884875473845831,-8.0734120451142459],[-34.884949897250991,-8.0734161874278403],[-34.885055546793829,-8.0734255678597346],[-34.885160029505883,-8.0734421302159625],[-34.885261842246244,-8.0734652829214415],[-34.885374186282071,-8.0734949642478622],[-34.88553523446425,-8.0735465484390012],[-34.885690882609403,-8.0735981574427456],[-34.885812263169342,-8.0736355711595547],[-34.885989840535991,-8.073693059445441],[-34.886052337729879,-8.073713402447968],[-34.88614007759255,-8.0737423010015839],[-34.886291509715797,-8.0737906392353178],[-34.88645194873812,-8.0738401328790204],[-34.886629821408235,-8.0738967217345969],[-34.886810108222662,-8.0739562891546726],[-34.887000000648136,-8.0740170091829739],[-34.887146030975742,-8.0740647743698446],[-34.88719831890787,-8.0740830713178902],[-34.887387002963543,-8.074142002118796],[-34.887527622180087,-8.0741874008240906],[-34.887634589993866,-8.0742221898746731],[-34.887756580128979,-8.0742616939611676],[-34.887825104411597,-8.0742876900666172],[-34.887913482940114,-8.0743249569914237],[-34.888014497452886,-8.0743699397456563],[-34.888137495148584,-8.0744324125566962],[-34.88822381590554,-8.0744789574960691],[-34.888339618747764,-8.0745427092543416],[-34.888396166464311,-8.0745738441463821],[-34.88848278982563,-8.0746206868700323],[-34.888552280749884,-8.0746610305895814],[-34.888625363215802,-8.0746992647767684],[-34.888719890474512,-8.0747455149445795],[-34.888767018512816,-8.0747717669422876],[-34.888837418083284,-8.0748120349839052],[-34.888990931196709,-8.0748955861797658],[-34.889194572883888,-8.0750064792614218],[-34.889410953813737,-8.0751392697854225],[-34.889503353910378,-8.0751897931764223],[-34.889635438606845,-8.0752580746394163],[-34.889697501370946,-8.0752879271652809],[-34.889819419448813,-8.0753375971873549],[-34.889940593931101,-8.0753822466495464],[-34.890151165952886,-8.0754508822435191],[-34.890489395473338,-8.0755648548647976],[-34.890851440524081,-8.0756901988467948],[-34.891118274482224,-8.0757801025663944],[-34.891375724580065,-8.0758650255235995],[-34.891647608667292,-8.0759570571940547],[-34.891896655661533,-8.0760413016984511],[-34.892075275445741,-8.0761033856294624],[-34.892132724896065,-8.0761217782024346],[-34.892203156632817,-8.0761448941753109],[-34.892288018965957,-8.0761744020916471],[-34.892345950727567,-8.0761935093304444],[-34.892405563388358,-8.076212609687591],[-34.892471192237267,-8.0762350299909578],[-34.89254691123169,-8.0762597957811852],[-34.892604372966538,-8.0762808190789315],[-34.892656289469755,-8.0762966063088513],[-34.89276096463324,-8.0763280557032271],[-34.893134234134273,-8.0764530859363148],[-34.893691925058775,-8.0766370828096008],[-34.89428792977251,-8.0768328450901627],[-34.894298289900711,-8.0768368654432461],[-34.894349527303028,-8.0768529014796631],[-34.894360447121173,-8.0768598366855802],[-34.894638745658874,-8.0769549879494384],[-34.894883591978129,-8.0770375519568951],[-34.894923581692638,-8.0770510371899356],[-34.895117449253348,-8.0771173866850727],[-34.895141734034468,-8.0771256974170225],[-34.895327813235291,-8.0771893860318951],[-34.895856509784991,-8.0773677503816899],[-34.895953655773866,-8.0774005012482899],[-34.896191408270056,-8.0774806535231995],[-34.896836705568177,-8.0776969314507863],[-34.896841064848012,-8.0776983930079052],[-34.896930795281307,-8.0777284666845723],[-34.897521764575245,-8.0779257214152018],[-34.89797215989924,-8.0780813522615968],[-34.899341422402969,-8.0785426805212737],[-34.899347328116932,-8.0785446700752885],[-34.899443316885836,-8.0785770103879475],[-34.901206207449476,-8.0791709500394564],[-34.901707282563571,-8.0793468140544462],[-34.901600349819731,-8.0795655692827903],[-34.901358360415607,-8.0794949548233337],[-34.901208600797368,-8.0794841730993667],[-34.901124652581608,-8.0794749676143489],[-34.900858668052564,-8.0794519452731297],[-34.90054893809382,-8.0794282690227313],[-34.900358052123686,-8.0794124119154649],[-34.900080681508285,-8.0793916045023888],[-34.899921162050013,-8.0793802691465064],[-34.899581644054457,-8.0793468589892132],[-34.899576986903021,-8.0793461076433584],[-34.899458678913369,-8.0793270198991038],[-34.899389021787563,-8.0793112166432639],[-34.899206807280976,-8.0792684198572378],[-34.899088149024386,-8.0792310686665374],[-34.898979150730533,-8.0791996882677299],[-34.898965959877899,-8.0791940394098667],[-34.898713930110539,-8.0791074153482771],[-34.898501645366849,-8.0790344515382646],[-34.89827103509662,-8.0789551881143726],[-34.898102991154417,-8.0788974304036678],[-34.898083782423633,-8.078890828527161],[-34.898078652461315,-8.0788890649881768],[-34.897971149534492,-8.0788521154887256],[-34.897886152657044,-8.0788229007133463],[-34.897696793024757,-8.0787578165924501],[-34.897603238061713,-8.0787256589292351],[-34.897537257205258,-8.0787060628519001],[-34.897442656260949,-8.0786779692846942],[-34.897146806256458,-8.0785901099512412],[-34.896891867076064,-8.0785143975861438],[-34.896816618802163,-8.0784936130164109],[-34.896816482552381,-8.0784935747732565],[-34.896816345399714,-8.0784935374383586],[-34.896779532383768,-8.0784833683076833],[-34.896784511761723,-8.0784645423080317],[-34.896815971480287,-8.0783524694779327],[-34.896599381510299,-8.0782770717281434],[-34.896175680594546,-8.0781325242267936],[-34.895977623271833,-8.0780372156500029],[-34.895855359559967,-8.0779650642245358],[-34.895705139605013,-8.0778579181871315],[-34.895597942644052,-8.0777740957540178],[-34.895475099515807,-8.0776807779874904],[-34.89539564219551,-8.0776267273388385],[-34.895330619819568,-8.0775797863113041],[-34.895004651544618,-8.0773621375707734],[-34.894928350884292,-8.0773216359941227],[-34.894892255385223,-8.0773017101864752],[-34.894830166206965,-8.0772661169589899],[-34.894703126045997,-8.0771992507328765],[-34.894586234575911,-8.0771466887164731],[-34.894460715296823,-8.0770970379605949],[-34.89434958317733,-8.0770444491865376],[-34.894183648790822,-8.0769748915595372],[-34.894032222030383,-8.0769282310606236],[-34.892360010141211,-8.0763547059604814],[-34.892042685431278,-8.076246139765539],[-34.891837279442278,-8.0761807116839428],[-34.89177862758671,-8.0761606656508533],[-34.891778367693945,-8.0761607635888328],[-34.890842820790446,-8.0758897881093077],[-34.889974028597983,-8.0756362388729794],[-34.889585537293591,-8.0755228605014402],[-34.88949111706988,-8.0754856373082529],[-34.889244882054598,-8.0753885637766682],[-34.889123139599832,-8.0753405689179516],[-34.889050398949799,-8.0753118920825031],[-34.888658786477819,-8.0751575064285213],[-34.888370081588192,-8.0750436886436052],[-34.8880441949917,-8.0749152126287829],[-34.887835784838259,-8.0748330498714527],[-34.887590880905059,-8.0747364997125128],[-34.887216530126636,-8.0745889164299935],[-34.886720714709341,-8.0743934460531044],[-34.886329390754085,-8.0742391712466972],[-34.886179999003524,-8.0741885743141975],[-34.88580296362197,-8.0740608780421521],[-34.885731067079462,-8.0740365280586293],[-34.885282054008634,-8.0738847329405328],[-34.884898991047592,-8.0737552643598285],[-34.884562702763752,-8.0736416038369097],[-34.884423238632927,-8.0736050089239058],[-34.884273489951966,-8.0735759678865389],[-34.884182917985321,-8.0735621140601861],[-34.883977833949487,-8.0735502873277447],[-34.883892040366504,-8.0735414326898329]]]},"properties":{"OBJECTID":13,"ID":0,"SETORES":"1","ZONAS":"Z 01","DB2GSE.ST_Area(SHAPE)":91025.489448295004,"DB2GSE.SdeLength(SHAPE)":4213.8753119328776}},{"type":"Feature","id":14,"geometry":{"type":"Polygon","coordinates":[[[-34.888828813602011,-8.076008642101753],[-34.88910219803396,-8.0753323128554424],[-34.889123139599832,-8.0753405689179516],[-34.889244882054598,-8.0753885637766682],[-34.88949111706988,-8.0754856373082529],[-34.889585537293591,-8.0755228605014402],[-34.889938128852926,-8.0756257619418452],[-34.889974028597983,-8.0756362388729794],[-34.890176430116554,-8.0756953081690064],[-34.890178895435241,-8.0756960272714906],[-34.890842820790446,-8.0758897881093077],[-34.891128181197246,-8.0759724413575658],[-34.891521735021044,-8.0760864320285624],[-34.891778367693945,-8.0761607635888328],[-34.89177862758671,-8.0761606656508533],[-34.891837279442278,-8.0761807116839428],[-34.891780181603387,-8.0763383662209396],[-34.891764393539532,-8.0763819605191447],[-34.89174856093377,-8.0764241717881742],[-34.891725384566783,-8.0764859604168286],[-34.89171647820212,-8.0765106882876481],[-34.891676167138264,-8.0766226057709751],[-34.891652046095345,-8.0766930914535102],[-34.891614437947432,-8.0768029884862678],[-34.89159646170539,-8.0768555170329641],[-34.891578777980961,-8.0768985894065661],[-34.891558322841917,-8.0769576170624813],[-34.891520591239789,-8.0770675038186504],[-34.891479260809746,-8.07718787189145],[-34.891465483299839,-8.0772286244249916],[-34.891461946831818,-8.0772330128882732],[-34.891456017717871,-8.0772370959899504],[-34.891447418395863,-8.0772393200037449],[-34.891439208713592,-8.0772389185885114],[-34.89119822360265,-8.077145510034617],[-34.891177781755829,-8.0771378394483282],[-34.891153992998731,-8.0771287043642044],[-34.891130954064174,-8.0771210457833273],[-34.891048177544079,-8.0770881332058106],[-34.890978857710373,-8.0770605141396317],[-34.890645801063442,-8.0769278139077052],[-34.890613839470944,-8.0769150794668541],[-34.890529042688037,-8.0768137158575328],[-34.890469235175111,-8.0767527556024348],[-34.890386453590757,-8.0767062546222004],[-34.890296027947535,-8.0766674428545251],[-34.890208566100497,-8.0766467974330265],[-34.89006257349822,-8.0766331198473953],[-34.88996268044523,-8.0766230561613863],[-34.889890610949962,-8.0766090369420631],[-34.889815603492039,-8.0765825930010067],[-34.889738626710965,-8.0765456328853666],[-34.889657765594478,-8.0764991219520805],[-34.889553730133287,-8.0764240145283068],[-34.889449564763034,-8.0763211597535243],[-34.889365632291614,-8.0762335202161228],[-34.889328070765337,-8.0762078597171243],[-34.889262641209406,-8.0761765870380255],[-34.889107812670652,-8.0761208497360979],[-34.888917360836281,-8.07604326982608],[-34.888828813602011,-8.076008642101753]]]},"properties":{"OBJECTID":14,"ID":0,"SETORES":"5a","ZONAS":"Z 05","DB2GSE.ST_Area(SHAPE)":32767.892025770001,"DB2GSE.SdeLength(SHAPE)":847.82137661251795}},{"type":"Feature","id":15,"geometry":{"type":"Polygon","coordinates":[[[-34.883611006165744,-8.0742829415654356],[-34.883892040366504,-8.0735414326898329],[-34.883977833949487,-8.0735502873277447],[-34.884182917985321,-8.0735621140601861],[-34.884273489951966,-8.0735759678865389],[-34.884423238632927,-8.0736050089239058],[-34.884562702763752,-8.0736416038369097],[-34.884898991047592,-8.0737552643598285],[-34.885224487570895,-8.0738652766028736],[-34.886122580855321,-8.0750360498076272],[-34.88600664211279,-8.0750290063114285],[-34.885842493901194,-8.0750335899560444],[-34.885662007013721,-8.0750344218784491],[-34.885577493150741,-8.0750281139893563],[-34.885467968328037,-8.0750113960665946],[-34.885361262370836,-8.0749812693895144],[-34.88510155040936,-8.074874345563936],[-34.884839932401285,-8.0747703007732863],[-34.884453291957314,-8.0746199479172827],[-34.884087804143917,-8.074476194642811],[-34.883740574616851,-8.0743361838893097],[-34.883611006165744,-8.0742829415654356]]]},"properties":{"OBJECTID":15,"ID":0,"SETORES":"5d","ZONAS":"Z 05","DB2GSE.ST_Area(SHAPE)":23814.99507597,"DB2GSE.SdeLength(SHAPE)":695.11504089505991}},{"type":"Feature","id":16,"geometry":{"type":"Polygon","coordinates":[[[-34.875941440978202,-8.0784406112799516],[-34.874896677502157,-8.0774297403726916],[-34.874771038088582,-8.077137426592218],[-34.874770639193933,-8.0771364981183531],[-34.873683357455235,-8.0746067947343416],[-34.87368240837263,-8.0746045849778874],[-34.872506321202465,-8.0718682136518893],[-34.872231213229476,-8.0712305949216994],[-34.872225908821157,-8.0712183001182591],[-34.87178924710868,-8.0703457490575286],[-34.871099730606204,-8.0686081218224892],[-34.871090110389311,-8.0685858240131978],[-34.870845606244572,-8.0679231549388977],[-34.872265348104932,-8.0675302713969916],[-34.872977023211597,-8.0670517076810828],[-34.873598702748836,-8.0665795425788698],[-34.873937394358627,-8.0663268264788694],[-34.8740698379289,-8.0661851615514806],[-34.87467922315399,-8.0664452803466755],[-34.874687277945533,-8.0664487187758009],[-34.875295136810188,-8.0667081843824207],[-34.875736986574509,-8.0668967878109079],[-34.87570202517287,-8.0669696064431733],[-34.875650854224332,-8.0670638474484786],[-34.875609447200489,-8.067140106709676],[-34.875544798538868,-8.0672438806231987],[-34.875284854130349,-8.0674615087960184],[-34.875194641066003,-8.0675370350257136],[-34.875088723248517,-8.0676262224444706],[-34.874890777217516,-8.0677933365510679],[-34.874756536451493,-8.0678997471167726],[-34.874232369966862,-8.0683152481666323],[-34.874286707637083,-8.0684313144148696],[-34.875066581090479,-8.0700971257261145],[-34.875288212402779,-8.0705350540403931],[-34.87542643946022,-8.0708549699852909],[-34.875468100055528,-8.0709370660919344],[-34.875477678901149,-8.0709322377914763],[-34.875544075525518,-8.07096542262925],[-34.875576105247909,-8.0710408644907954],[-34.875674017759621,-8.0712461328128864],[-34.875911605315608,-8.0713445537365036],[-34.875860575927987,-8.0715208434077272],[-34.876947406407659,-8.0719473877439327],[-34.87804197573476,-8.072386332424097],[-34.879187470222107,-8.0728402491518558],[-34.881215973540435,-8.0736463412584509],[-34.881238078493944,-8.0734789286445636],[-34.881246101760311,-8.0734572905574531],[-34.881865137015716,-8.0737039422859294],[-34.88186634392153,-8.0737044231305291],[-34.882136630938675,-8.0738121171208839],[-34.88278345267824,-8.0740681692996841],[-34.882883988898051,-8.0741084788616231],[-34.883008474878189,-8.0741576810020295],[-34.88300863391725,-8.074157743555693],[-34.883062203301307,-8.0741789164773792],[-34.883358222819638,-8.0742956412742668],[-34.883841548614718,-8.0744938045038648],[-34.883875905573767,-8.0745078900813319],[-34.884340019639495,-8.0746918105080479],[-34.884673863958334,-8.0748242175134131],[-34.884691028101308,-8.0748309027638712],[-34.884693640850678,-8.0748319213779265],[-34.884837121022173,-8.0748878105270059],[-34.884896358482003,-8.0749135081841441],[-34.885088452445444,-8.0749889852373133],[-34.885239637782561,-8.0750495326929954],[-34.88543914103559,-8.0751288502895715],[-34.885573180364567,-8.0751821119940121],[-34.885574118245103,-8.0751824810557675],[-34.885797226409665,-8.0752702322879433],[-34.885947239953488,-8.0753296221902673],[-34.886725741014693,-8.0756389556442194],[-34.886726345379067,-8.0756391960538121],[-34.887397760437807,-8.0759059778082065],[-34.887465407596501,-8.0759327093602895],[-34.887469099179278,-8.0759341686858246],[-34.887585376691817,-8.075980116207921],[-34.887716592611561,-8.0760324209371444],[-34.887899824903094,-8.0761048363354],[-34.888052083073241,-8.0761657645522025],[-34.888239702213887,-8.0762404848086824],[-34.888272212748397,-8.0762534601273206],[-34.888307423756423,-8.0762671977708766],[-34.888302924717827,-8.0762657177716282],[-34.888379394283717,-8.0762962380885526],[-34.888608214008755,-8.0763861752224866],[-34.889320642339413,-8.0766698301321309],[-34.889323974085777,-8.0766711563924929],[-34.889548331791765,-8.0767604842760363],[-34.889885575262227,-8.0768941091227848],[-34.88990627237407,-8.076902446715021],[-34.889907686538599,-8.076903016981495],[-34.890176654568286,-8.0770113752641812],[-34.890326221410383,-8.0770665722230124],[-34.890326419507893,-8.0770666454416933],[-34.890371157623385,-8.0770831559448624],[-34.890387482450457,-8.0770891802957578],[-34.890426960765545,-8.0771822614053139],[-34.890427223999708,-8.0771828812888327],[-34.890461070691913,-8.0772626831342986],[-34.890464409314617,-8.0772705539573497],[-34.890553595649351,-8.0774808338944997],[-34.890677696242221,-8.0777513482682668],[-34.890704416787194,-8.0778740814099681],[-34.890704755116396,-8.0778756330480821],[-34.890716739792275,-8.0779306819659737],[-34.890783636802126,-8.0782379609579227],[-34.890820001580444,-8.0784049925907819],[-34.89082061524401,-8.078407814085983],[-34.890835777587206,-8.0784774554508374],[-34.890753882558577,-8.0787261475424756],[-34.890732893080624,-8.0788007928672059],[-34.890228373013741,-8.079172810067492],[-34.890224719773549,-8.0791755039238513],[-34.890164796132062,-8.0792196891805546],[-34.889820266004598,-8.079475560267273],[-34.888786919674907,-8.0802554802308038],[-34.889314563435285,-8.0807358146343073],[-34.889399321081783,-8.0806734033055072],[-34.889552247673848,-8.0805500369007532],[-34.889722425155313,-8.0804190100463131],[-34.889873315418505,-8.0803039216557941],[-34.889889842663713,-8.0803058495976963],[-34.889927518122782,-8.0803147632185937],[-34.890036803840459,-8.0803406190824685],[-34.890224485518409,-8.0803850221311269],[-34.890421384022787,-8.0804316055903982],[-34.890473460642966,-8.0804577014303014],[-34.890577971235174,-8.0805100704401092],[-34.890676345550766,-8.0806040607007326],[-34.89068535096547,-8.0806126647312801],[-34.890784925383144,-8.0807078011965192],[-34.890931962985867,-8.0808481695972745],[-34.891780223411516,-8.0815829171844413],[-34.891800631392982,-8.0816005941457902],[-34.892132333216175,-8.0816431091160048],[-34.892360441348323,-8.0815661552432179],[-34.892463958131977,-8.0816854704641266],[-34.892687201766364,-8.0814722334099276],[-34.893658350104609,-8.0812967981364938],[-34.894152815855861,-8.081207474006538],[-34.894154289531926,-8.0812071851074609],[-34.894922192638191,-8.0810569459380837],[-34.895603992692237,-8.0809235515944966],[-34.895841601533213,-8.0808770635250315],[-34.896217707889008,-8.0809634193426056],[-34.896460188142377,-8.0808301435606538],[-34.896669675071642,-8.0809013257885631],[-34.897522826737109,-8.0811912201766845],[-34.897528080204999,-8.0811930057449644],[-34.898742585720456,-8.0816297506607224],[-34.898799852719478,-8.0814537476161448],[-34.899139559081476,-8.0815786148305016],[-34.899580572191319,-8.0817407179662872],[-34.899862758243287,-8.0817501785843895],[-34.900266981090041,-8.0816550113639458],[-34.900420724870308,-8.0815811003722509],[-34.900607201751377,-8.0814237948453265],[-34.900760381923796,-8.0812293285667121],[-34.900731439603902,-8.0811993241314273],[-34.90089705165056,-8.0809152437101321],[-34.900999809685949,-8.0807389820588824],[-34.901050827653755,-8.0806576379583213],[-34.90112198266079,-8.0805441888927501],[-34.901298976526661,-8.0801821038411941],[-34.90138792533007,-8.0800001375103658],[-34.901387985535848,-8.080000015180909],[-34.901520087316314,-8.0797297673104307],[-34.901600349819731,-8.0795655692827903],[-34.901707282563571,-8.0793468140544462],[-34.902177926506965,-8.0795062943313631],[-34.902173769003909,-8.07954075331231],[-34.902171152751954,-8.0795624333273537],[-34.902149796616818,-8.0797394103445725],[-34.902149554718939,-8.0797414130807432],[-34.902133399650353,-8.0798752905871947],[-34.90211622725699,-8.0800176005674249],[-34.902088615186379,-8.0802464225582806],[-34.902063560855055,-8.080454048485544],[-34.902033857367563,-8.0807002049046286],[-34.902029006458577,-8.0807403998214902],[-34.902004680925252,-8.0809159550020695],[-34.901964794100763,-8.0812038075007848],[-34.90194149432606,-8.0813719581014958],[-34.901901644331836,-8.0816595428326572],[-34.901900741389731,-8.0816660563375784],[-34.901782442840585,-8.0818960515506983],[-34.901720829920578,-8.0820158381748595],[-34.901682104511877,-8.0820911284779697],[-34.901594131311207,-8.0822621647045256],[-34.901367021975439,-8.0824906264885534],[-34.901232494319501,-8.0826259542017631],[-34.901200244728805,-8.0826583966949457],[-34.901195466609323,-8.0826632032598429],[-34.90093423367918,-8.0829259911593869],[-34.898772339995624,-8.08441536329976],[-34.898242521070742,-8.0840351004093929],[-34.897680372531674,-8.0837985081547892],[-34.897151771892673,-8.0836783710153561],[-34.896488317370078,-8.0835917490736104],[-34.895867214084141,-8.0835796800931785],[-34.895210304638461,-8.0836096375074984],[-34.894733614101298,-8.083683608597914],[-34.894100663095003,-8.083704482986251],[-34.893615486540924,-8.0838891237174018],[-34.893516899318868,-8.0839792818413052],[-34.893424508021148,-8.0841112716872807],[-34.893407232093907,-8.0842668344075879],[-34.89338444454188,-8.0845270737732857],[-34.893355505961253,-8.084977382555584],[-34.892874719947478,-8.0852380749104906],[-34.892456834466543,-8.0853584488199779],[-34.891828061640808,-8.0853296337822336],[-34.891198579291782,-8.085239888174689],[-34.890687087404501,-8.0851405620816656],[-34.89035805394537,-8.0850454278545154],[-34.888164412760965,-8.083822148054125],[-34.887567713564422,-8.083824904435259],[-34.88673978874791,-8.0840562286646129],[-34.884212427792718,-8.0830602434638017],[-34.883579163261409,-8.0828300780602973],[-34.883454524953365,-8.082768815203714],[-34.883381520982553,-8.0827329314705771],[-34.881226124766613,-8.0816734867196711],[-34.879943197173027,-8.0810428767063414],[-34.879686204906285,-8.0809165558165947],[-34.879654322446079,-8.0808937179456475],[-34.878841183910346,-8.0803112663029903],[-34.877917887138089,-8.0796499029663398],[-34.877686541623504,-8.0794841875409347],[-34.877444070408814,-8.0793105029082177],[-34.877058759799404,-8.0790344996842567],[-34.876953701237532,-8.0789592451058869],[-34.876524483112853,-8.0786517889990659],[-34.876449851495842,-8.0785983276754312],[-34.876138254397297,-8.0783751270416069],[-34.875976808860287,-8.0782594805191312],[-34.875941440978202,-8.0784406112799516]]]},"properties":{"OBJECTID":16,"ID":0,"SETORES":"10","ZONAS":"Z 10","DB2GSE.ST_Area(SHAPE)":2161254.7790502901,"DB2GSE.SdeLength(SHAPE)":10137.172880442822}},{"type":"Feature","id":17,"geometry":{"type":"Polygon","coordinates":[[[-34.896513700512514,-8.079513114231391],[-34.896407256359169,-8.0799451833685598],[-34.896261118511077,-8.0805383851039316],[-34.896042052988783,-8.0804959007172901],[-34.895151186687798,-8.0802191897994984],[-34.89469528180102,-8.0800689844233116],[-34.894778030826345,-8.079792719260821],[-34.894886463417471,-8.0794601903023437],[-34.894954616563197,-8.0792586349158029],[-34.894997861982667,-8.0791540465541374],[-34.895004461090849,-8.0791288881511729],[-34.896513700512514,-8.079513114231391]]]},"properties":{"OBJECTID":17,"ID":0,"SETORES":"2d","ZONAS":"Z 02","DB2GSE.ST_Area(SHAPE)":20224.782178040001,"DB2GSE.SdeLength(SHAPE)":578.37322782163062}},{"type":"Feature","id":18,"geometry":{"type":"Polygon","coordinates":[[[-34.886122580855321,-8.0750360498076272],[-34.885224487570895,-8.0738652766028736],[-34.885235803699985,-8.0738691011544592],[-34.885282054008634,-8.0738847329405328],[-34.885731067079462,-8.0740365280586293],[-34.88580296362197,-8.0740608780421521],[-34.886179999003524,-8.0741885743141975],[-34.886329390754085,-8.0742391712466972],[-34.886720714709341,-8.0743934460531044],[-34.887199285622458,-8.0745821177495589],[-34.887208554489661,-8.0745857726734958],[-34.887212389626825,-8.0745872837787633],[-34.886933557852458,-8.0752555225023031],[-34.886805396040415,-8.0751999739885925],[-34.886670533904393,-8.0751539509525454],[-34.886509791735328,-8.0751166585473477],[-34.886356276042818,-8.0750850745521809],[-34.886198416427732,-8.0750484856547065],[-34.886122580855321,-8.0750360498076272]]]},"properties":{"OBJECTID":18,"ID":0,"SETORES":"5c","ZONAS":"Z 05","DB2GSE.ST_Area(SHAPE)":14073.572856680001,"DB2GSE.SdeLength(SHAPE)":569.30571429528538}},{"type":"Feature","id":19,"geometry":{"type":"Polygon","coordinates":[[[-34.886933557852458,-8.0752555225023031],[-34.887212389626825,-8.0745872837787633],[-34.887216530126636,-8.0745889164299935],[-34.887590880905059,-8.0747364997125128],[-34.887835784838259,-8.0748330498714527],[-34.887852338667713,-8.0748395759635514],[-34.8880441949917,-8.0749152126287829],[-34.888370081588192,-8.0750436886436052],[-34.888658786477819,-8.0751575064285213],[-34.889050398949799,-8.0753118920825031],[-34.88910219803396,-8.0753323128554424],[-34.888828813602011,-8.076008642101753],[-34.888665651343132,-8.0759540930693348],[-34.888522675666344,-8.0759182745558373],[-34.888365286478439,-8.07587953183533],[-34.888224119804747,-8.0758454994477091],[-34.888069135539268,-8.075807941593629],[-34.887953781223878,-8.075776181250319],[-34.887852827456882,-8.0757443553181787],[-34.887753628968134,-8.0757029515986325],[-34.887620121005945,-8.0756383845824029],[-34.887478773866285,-8.0755654819238547],[-34.887355426745025,-8.0754924952579223],[-34.887183953535185,-8.0753928206831507],[-34.887031120670187,-8.0753014317969196],[-34.886972182384817,-8.0752724015865986],[-34.886933557852458,-8.0752555225023031]]]},"properties":{"OBJECTID":19,"ID":0,"SETORES":"5b","ZONAS":"Z 05","DB2GSE.ST_Area(SHAPE)":19538.45357682,"DB2GSE.SdeLength(SHAPE)":611.29324489004773}},{"type":"Feature","id":20,"geometry":{"type":"MultiPolygon","coordinates":[[[[-34.891780223411516,-8.0815829171844413],[-34.890931962985867,-8.0808481695972745],[-34.890961320663337,-8.0808174995624782],[-34.891015719916815,-8.0807606672840144],[-34.891008273102734,-8.0807536490351399],[-34.891017124267755,-8.0807443223354287],[-34.891080935662998,-8.0806770758675057],[-34.891266168054742,-8.0804818726547065],[-34.891504547735877,-8.080230661967148],[-34.891522819626566,-8.0802114065191226],[-34.89169858572204,-8.0800261791655394],[-34.891715695591763,-8.0800071297937954],[-34.891744082679445,-8.0799741606357376],[-34.891771292134386,-8.0799382378872817],[-34.891794156538872,-8.0798992396884586],[-34.891811791961594,-8.0798691599743773],[-34.891845390306592,-8.0797923145364692],[-34.891866801691727,-8.0797340897651964],[-34.891880053810802,-8.0796839607678965],[-34.891895272153889,-8.0796134791747374],[-34.891899519822537,-8.0795707256980318],[-34.89190192281233,-8.0795011966267207],[-34.891893744422838,-8.0793708162039479],[-34.891881458131877,-8.0793233186968241],[-34.891839078944031,-8.0792226199816373],[-34.891803588531246,-8.079159679729738],[-34.891769210262751,-8.0791017971481907],[-34.891712763065136,-8.0790117963182571],[-34.891699385840759,-8.0789904668781478],[-34.891678895825748,-8.0789590374656388],[-34.89167106200145,-8.0789470214774912],[-34.891669114784278,-8.0789438011284176],[-34.891613285372728,-8.0788514567653298],[-34.891586932519992,-8.078811656509405],[-34.891585088664314,-8.0788129045257904],[-34.891500177163195,-8.0786806296568727],[-34.891364183560142,-8.0784717988474952],[-34.891261047192934,-8.0783129180651994],[-34.891200830163633,-8.078372359244554],[-34.891112253983906,-8.0784606377693002],[-34.891001515879282,-8.0785691055153688],[-34.890866929914246,-8.0787019579463184],[-34.890848350058889,-8.0787156592367797],[-34.890809467221587,-8.07874432825672],[-34.890763283347688,-8.0787783831600972],[-34.890732893080624,-8.0788007928672059],[-34.890748609485037,-8.0787421614066659],[-34.890835776680078,-8.0784774554550296],[-34.890783636802126,-8.0782379609579227],[-34.890716739792275,-8.0779306819659737],[-34.890677696238008,-8.0777513473642113],[-34.890553595649351,-8.0774808338944997],[-34.890387482450457,-8.0770891802957578],[-34.890176654568286,-8.0770113752641812],[-34.889885575262227,-8.0768941091227848],[-34.889548331791765,-8.0767604842760363],[-34.888608214008755,-8.0763861752224866],[-34.888379394283717,-8.0762962380885526],[-34.888239702213887,-8.0762404848086824],[-34.888052083073241,-8.0761657645522025],[-34.887899824903094,-8.0761048363354],[-34.887716592611561,-8.0760324209371444],[-34.887585376691817,-8.075980116207921],[-34.887397760437807,-8.0759059778082065],[-34.885947239953488,-8.0753296221902673],[-34.885797226409665,-8.0752702322879433],[-34.885573180364567,-8.0751821119940121],[-34.88543914103559,-8.0751288502895715],[-34.885239637782561,-8.0750495326929954],[-34.885088452445444,-8.0749889852373133],[-34.884896358482003,-8.0749135081841441],[-34.884837121022173,-8.0748878105270059],[-34.884673863958334,-8.0748242175134131],[-34.884340019639495,-8.0746918105080479],[-34.883875905573767,-8.0745078900813319],[-34.883358222819638,-8.0742956412742668],[-34.883062203301307,-8.0741789164773792],[-34.882883988898051,-8.0741084788616231],[-34.88278345267824,-8.0740681692996841],[-34.882136630938675,-8.0738121171208839],[-34.881246101760311,-8.0734572905574531],[-34.881238078493944,-8.0734789286445636],[-34.881215973540435,-8.0736463412584509],[-34.879187470222107,-8.0728402491518558],[-34.879397226650759,-8.07240781199922],[-34.880068695969086,-8.0728061074143138],[-34.880727348870337,-8.0731399631890426],[-34.88098759864814,-8.0732491977679892],[-34.881284068945597,-8.0733600475712013],[-34.881399485556557,-8.073405444227939],[-34.881903479066843,-8.0736050159577957],[-34.882250703204321,-8.0737440711649597],[-34.882731607772378,-8.0739332225943112],[-34.883118264979558,-8.0740874051722979],[-34.883611006165744,-8.0742829415654356],[-34.883740574616851,-8.0743361838893097],[-34.884087804143917,-8.074476194642811],[-34.884453291957314,-8.0746199479172827],[-34.884839932401285,-8.0747703007732863],[-34.88510155040936,-8.074874345563936],[-34.885361262370836,-8.0749812693895144],[-34.885467968328037,-8.0750113960665946],[-34.885577493150741,-8.0750281139893563],[-34.885662007013721,-8.0750344218784491],[-34.885842493901194,-8.0750335899560444],[-34.88600664211279,-8.0750290063114285],[-34.886122580855321,-8.0750360498076272],[-34.886198416427732,-8.0750484856547065],[-34.886356276042818,-8.0750850745521809],[-34.886509791735328,-8.0751166585473477],[-34.886670533904393,-8.0751539509525454],[-34.886805396040415,-8.0751999739885925],[-34.886933557852458,-8.0752555225023031],[-34.886972182384817,-8.0752724015865986],[-34.887031120670187,-8.0753014317969196],[-34.887183953535185,-8.0753928206831507],[-34.887355426745025,-8.0754924952579223],[-34.887478773866285,-8.0755654819238547],[-34.887620121005945,-8.0756383845824029],[-34.887753628968134,-8.0757029515986325],[-34.887852827456882,-8.0757443553181787],[-34.887953781223878,-8.075776181250319],[-34.888069135539268,-8.075807941593629],[-34.888224119804747,-8.0758454994477091],[-34.888365286478439,-8.07587953183533],[-34.888522675666344,-8.0759182745558373],[-34.888665651343132,-8.0759540930693348],[-34.888828813602011,-8.076008642101753],[-34.888917360836281,-8.07604326982608],[-34.889107812670652,-8.0761208497360979],[-34.889262641209406,-8.0761765870380255],[-34.889328070765337,-8.0762078597171243],[-34.889365632291614,-8.0762335202161228],[-34.889449564763034,-8.0763211597535243],[-34.889553730133287,-8.0764240145283068],[-34.889657765594478,-8.0764991219520805],[-34.889738626710965,-8.0765456328853666],[-34.889815603492039,-8.0765825930010067],[-34.889890610949962,-8.0766090369420631],[-34.88996268044523,-8.0766230561613863],[-34.89006257349822,-8.0766331198473953],[-34.890208566100497,-8.0766467974330265],[-34.890296027947535,-8.0766674428545251],[-34.890386453590757,-8.0767062546222004],[-34.890469235175111,-8.0767527556024348],[-34.890529042688037,-8.0768137158575328],[-34.890613839470944,-8.0769150794668541],[-34.890978857710373,-8.0770605141396317],[-34.891048177544079,-8.0770881332058106],[-34.891130954064174,-8.0771210457833273],[-34.891153992998731,-8.0771287043642044],[-34.891177781755829,-8.0771378394483282],[-34.89119822360265,-8.077145510034617],[-34.891439208713592,-8.0772389185885114],[-34.891447418395863,-8.0772393200037449],[-34.891456017717871,-8.0772370959899504],[-34.891461946831818,-8.0772330128882732],[-34.891465483299839,-8.0772286244249916],[-34.891479260809746,-8.07718787189145],[-34.891558322841917,-8.0769576170624813],[-34.891578777980961,-8.0768985894065661],[-34.89159646170539,-8.0768555170329641],[-34.891676167138264,-8.0766226057709751],[-34.891725384566783,-8.0764859604168286],[-34.891764393539532,-8.0763819605191447],[-34.891780181603387,-8.0763383662209396],[-34.891837279442278,-8.0761807116839428],[-34.892042685431278,-8.076246139765539],[-34.892360010141211,-8.0763547059604814],[-34.892692604179175,-8.0764687775511845],[-34.892701997190336,-8.0764719996070049],[-34.892704168717835,-8.0764727435574866],[-34.893161195335757,-8.0766294925711239],[-34.893069574474296,-8.0767515960203724],[-34.89297557911253,-8.0769542002198005],[-34.892777390129957,-8.0775338644878598],[-34.892574365220028,-8.0781430239925847],[-34.892437144053055,-8.078541112924432],[-34.892433926356077,-8.0785504461147131],[-34.892263211440564,-8.0790457036186076],[-34.892256240898064,-8.0791438280085899],[-34.892238823542527,-8.0792485444365809],[-34.892234761672597,-8.0792599075657616],[-34.892216759844572,-8.0793232887750737],[-34.892195278807939,-8.0793910835055236],[-34.892188077124693,-8.0794458278333696],[-34.892189594680225,-8.0794802696841153],[-34.892197241403998,-8.0795214366116692],[-34.892209670167325,-8.0795706873453046],[-34.892231540268355,-8.0796097615137885],[-34.892256095695998,-8.0796434205010339],[-34.892290722811111,-8.0796709665323974],[-34.892317677061165,-8.0796945701400738],[-34.892402004928115,-8.0797349681054591],[-34.892483126828324,-8.0797862406349648],[-34.892517968970523,-8.0798455186711102],[-34.892534523340778,-8.0799075845331476],[-34.892540950217189,-8.0799778013967014],[-34.892545294769803,-8.08003722058797],[-34.892545179681591,-8.0800794866168193],[-34.892447586299753,-8.08037600295674],[-34.892373984521505,-8.0805918099807688],[-34.892319371139436,-8.0807519465948658],[-34.892282976594352,-8.0808489450847816],[-34.892236993269059,-8.0809513509289115],[-34.892184387259604,-8.0810505399880768],[-34.892125385186397,-8.0811460881046351],[-34.89209084202772,-8.081194603333735],[-34.892060239137621,-8.0812375854679068],[-34.891989228500393,-8.0813246402220553],[-34.891979529844349,-8.0813356696196372],[-34.89192832840061,-8.0814026255102114],[-34.891927487714902,-8.0814036510056848],[-34.891780223411516,-8.0815829171844413]]],[[[-34.891800631392982,-8.0816005941457902],[-34.891778704382936,-8.0815847658150766],[-34.891780223411516,-8.0815829171844413],[-34.891800631392982,-8.0816005941457902]]]]},"properties":{"OBJECTID":20,"ID":0,"SETORES":"6","ZONAS":"Z 06","DB2GSE.ST_Area(SHAPE)":114426.845457405,"DB2GSE.SdeLength(SHAPE)":4483.4237632522427}}]}